[{"name_en": "AsiaWorld-Expo", "name_zh": "博覽館", "name": {"en": "AsiaWorld-Expo", "zh": "博覽館"}, "exit": "A", "lat": 22.3222536053642, "lng": 113.9437067949521, "barrierFree": false}, {"name_en": "AsiaWorld-Expo", "name_zh": "博覽館", "name": {"en": "AsiaWorld-Expo", "zh": "博覽館"}, "exit": "B", "lat": 22.321622862149972, "lng": 113.94078234858334, "barrierFree": false}, {"name_en": "Airport", "name_zh": "機場", "name": {"en": "Airport", "zh": "機場"}, "exit": "A", "lat": 22.31524196018322, "lng": 113.93653095240961, "barrierFree": false}, {"name_en": "Airport", "name_zh": "機場", "name": {"en": "Airport", "zh": "機場"}, "exit": "B", "lat": 22.31584109291235, "lng": 113.93630658024104, "barrierFree": false}, {"name_en": "Airport", "name_zh": "機場", "name": {"en": "Airport", "zh": "機場"}, "exit": "C", "lat": 22.316442445552234, "lng": 113.93608137734189, "barrierFree": false}, {"name_en": "Airport", "name_zh": "機場", "name": {"en": "Airport", "zh": "機場"}, "exit": "D", "lat": 22.314966126356957, "lng": 113.93666780762344, "barrierFree": false}, {"name_en": "Airport", "name_zh": "機場", "name": {"en": "Airport", "zh": "機場"}, "exit": "E", "lat": 22.3167373931584, "lng": 113.9360213366226, "barrierFree": false}, {"name_en": "Tsing Yi", "name_zh": "青衣", "name": {"en": "Tsing Yi", "zh": "青衣"}, "exit": "A1", "lat": 22.35926294416095, "lng": 114.10716765728236, "barrierFree": false}, {"name_en": "Tsing Yi", "name_zh": "青衣", "name": {"en": "Tsing Yi", "zh": "青衣"}, "exit": "A2", "lat": 22.358901963719, "lng": 114.10773094128605, "barrierFree": false}, {"name_en": "Tsing Yi", "name_zh": "青衣", "name": {"en": "Tsing Yi", "zh": "青衣"}, "exit": "B", "lat": 22.357896366741752, "lng": 114.10737095593144, "barrierFree": false}, {"name_en": "Tsing Yi", "name_zh": "青衣", "name": {"en": "Tsing Yi", "zh": "青衣"}, "exit": "C", "lat": 22.357727726596536, "lng": 114.10711016901534, "barrierFree": true}, {"name_en": "Tsing Yi", "name_zh": "青衣", "name": {"en": "Tsing Yi", "zh": "青衣"}, "exit": "F", "lat": 22.358486546264217, "lng": 114.10770202018936, "barrierFree": false}, {"name_en": "Tsing Yi", "name_zh": "青衣", "name": {"en": "Tsing Yi", "zh": "青衣"}, "exit": "G", "lat": 22.358441376958382, "lng": 114.10766320781413, "barrierFree": false}, {"name_en": "Kowloon", "name_zh": "九龍", "name": {"en": "Kowloon", "zh": "九龍"}, "exit": "A", "lat": 22.305617568030264, "lng": 114.1622314278197, "barrierFree": true}, {"name_en": "Kowloon", "name_zh": "九龍", "name": {"en": "Kowloon", "zh": "九龍"}, "exit": "B", "lat": 22.304073251807992, "lng": 114.16134844156709, "barrierFree": true}, {"name_en": "Kowloon", "name_zh": "九龍", "name": {"en": "Kowloon", "zh": "九龍"}, "exit": "C1", "lat": 22.30479575518303, "lng": 114.16193065949174, "barrierFree": false}, {"name_en": "Kowloon", "name_zh": "九龍", "name": {"en": "Kowloon", "zh": "九龍"}, "exit": "C2", "lat": 22.304888233323922, "lng": 114.16168193412577, "barrierFree": false}, {"name_en": "Kowloon", "name_zh": "九龍", "name": {"en": "Kowloon", "zh": "九龍"}, "exit": "D1", "lat": 22.30506660594266, "lng": 114.16121246240216, "barrierFree": false}, {"name_en": "Kowloon", "name_zh": "九龍", "name": {"en": "Kowloon", "zh": "九龍"}, "exit": "D2", "lat": 22.304970767176595, "lng": 114.16146337325237, "barrierFree": false}, {"name_en": "Kowloon", "name_zh": "九龍", "name": {"en": "Kowloon", "zh": "九龍"}, "exit": "E1", "lat": 22.30449712893384, "lng": 114.16068259725277, "barrierFree": false}, {"name_en": "Kowloon", "name_zh": "九龍", "name": {"en": "Kowloon", "zh": "九龍"}, "exit": "E2", "lat": 22.30475705718628, "lng": 114.16077550203757, "barrierFree": false}, {"name_en": "Kowloon", "name_zh": "九龍", "name": {"en": "Kowloon", "zh": "九龍"}, "exit": "E3", "lat": 22.304937680630626, "lng": 114.16088947595959, "barrierFree": false}, {"name_en": "Kowloon", "name_zh": "九龍", "name": {"en": "Kowloon", "zh": "九龍"}, "exit": "E4", "lat": 22.305342152089175, "lng": 114.16106889486326, "barrierFree": false}, {"name_en": "Kowloon", "name_zh": "九龍", "name": {"en": "Kowloon", "zh": "九龍"}, "exit": "E5", "lat": 22.30555772060259, "lng": 114.16115002398443, "barrierFree": false}, {"name_en": "Kowloon", "name_zh": "九龍", "name": {"en": "Kowloon", "zh": "九龍"}, "exit": "E6", "lat": 22.305811600681036, "lng": 114.16127037682845, "barrierFree": false}, {"name_en": "Hong Kong", "name_zh": "香港", "name": {"en": "Hong Kong", "zh": "香港"}, "exit": "A", "lat": 22.28434219519289, "lng": 114.15828235321051, "barrierFree": true}, {"name_en": "Hong Kong", "name_zh": "香港", "name": {"en": "Hong Kong", "zh": "香港"}, "exit": "B1", "lat": 22.284104489435986, "lng": 114.15875002679692, "barrierFree": false}, {"name_en": "Hong Kong", "name_zh": "香港", "name": {"en": "Hong Kong", "zh": "香港"}, "exit": "B2", "lat": 22.284128638961633, "lng": 114.15900967080066, "barrierFree": false}, {"name_en": "Hong Kong", "name_zh": "香港", "name": {"en": "Hong Kong", "zh": "香港"}, "exit": "C", "lat": 22.283162052098348, "lng": 114.15714381866272, "barrierFree": false}, {"name_en": "Hong Kong", "name_zh": "香港", "name": {"en": "Hong Kong", "zh": "香港"}, "exit": "D", "lat": 22.284915992838958, "lng": 114.15735013279101, "barrierFree": true}, {"name_en": "Hong Kong", "name_zh": "香港", "name": {"en": "Hong Kong", "zh": "香港"}, "exit": "E", "lat": 22.28508104095512, "lng": 114.15724461124961, "barrierFree": true}, {"name_en": "Hong Kong", "name_zh": "香港", "name": {"en": "Hong Kong", "zh": "香港"}, "exit": "F", "lat": 22.285274016306413, "lng": 114.15847948531186, "barrierFree": false}, {"name_en": "Sunny Bay", "name_zh": "欣澳", "name": {"en": "Sunny Bay", "zh": "欣澳"}, "exit": "A", "lat": 22.331938043454944, "lng": 114.02867403965959, "barrierFree": true}, {"name_en": "Disneyland Resort", "name_zh": "迪士尼", "name": {"en": "Disneyland Resort", "zh": "迪士尼"}, "exit": "A", "lat": 22.315207202460208, "lng": 114.04538507398033, "barrierFree": true}, {"name_en": "Sheung Shui", "name_zh": "上水", "name": {"en": "Sheung Shui", "zh": "上水"}, "exit": "A1", "lat": 22.501369722434635, "lng": 114.12761467127619, "barrierFree": false}, {"name_en": "Sheung Shui", "name_zh": "上水", "name": {"en": "Sheung Shui", "zh": "上水"}, "exit": "A2", "lat": 22.5016043378264, "lng": 114.12729126028775, "barrierFree": false}, {"name_en": "Sheung Shui", "name_zh": "上水", "name": {"en": "Sheung Shui", "zh": "上水"}, "exit": "A3", "lat": 22.50168493908887, "lng": 114.12762085739774, "barrierFree": false}, {"name_en": "Sheung Shui", "name_zh": "上水", "name": {"en": "Sheung Shui", "zh": "上水"}, "exit": "A4", "lat": 22.501547467122947, "lng": 114.1277907973572, "barrierFree": false}, {"name_en": "Sheung Shui", "name_zh": "上水", "name": {"en": "Sheung Shui", "zh": "上水"}, "exit": "B1", "lat": 22.500791616604, "lng": 114.12827472816029, "barrierFree": false}, {"name_en": "Sheung Shui", "name_zh": "上水", "name": {"en": "Sheung Shui", "zh": "上水"}, "exit": "B2", "lat": 22.50097680369649, "lng": 114.12845775196331, "barrierFree": false}, {"name_en": "Sheung Shui", "name_zh": "上水", "name": {"en": "Sheung Shui", "zh": "上水"}, "exit": "C", "lat": 22.501382549220555, "lng": 114.12747897543125, "barrierFree": true}, {"name_en": "Sheung Shui", "name_zh": "上水", "name": {"en": "Sheung Shui", "zh": "上水"}, "exit": "D1", "lat": 22.50169300553123, "lng": 114.12768756326716, "barrierFree": false}, {"name_en": "Sheung Shui", "name_zh": "上水", "name": {"en": "Sheung Shui", "zh": "上水"}, "exit": "D2", "lat": 22.501460991733843, "lng": 114.12790832597578, "barrierFree": false}, {"name_en": "Sheung Shui", "name_zh": "上水", "name": {"en": "Sheung Shui", "zh": "上水"}, "exit": "D3", "lat": 22.50150338109994, "lng": 114.1278512627427, "barrierFree": false}, {"name_en": "Sheung Shui", "name_zh": "上水", "name": {"en": "Sheung Shui", "zh": "上水"}, "exit": "E", "lat": 22.501074113791205, "lng": 114.12836302013848, "barrierFree": true}, {"name_en": "Fanling", "name_zh": "粉嶺", "name": {"en": "Fanling", "zh": "粉嶺"}, "exit": "A1", "lat": 22.491995573763543, "lng": 114.13900351106172, "barrierFree": false}, {"name_en": "Fanling", "name_zh": "粉嶺", "name": {"en": "Fanling", "zh": "粉嶺"}, "exit": "A2", "lat": 22.4918511215159, "lng": 114.13914931959549, "barrierFree": false}, {"name_en": "Fanling", "name_zh": "粉嶺", "name": {"en": "Fanling", "zh": "粉嶺"}, "exit": "A3", "lat": 22.492022660399893, "lng": 114.13898406777199, "barrierFree": false}, {"name_en": "Fanling", "name_zh": "粉嶺", "name": {"en": "Fanling", "zh": "粉嶺"}, "exit": "B", "lat": 22.49182221463832, "lng": 114.13880100699494, "barrierFree": true}, {"name_en": "Fanling", "name_zh": "粉嶺", "name": {"en": "Fanling", "zh": "粉嶺"}, "exit": "C", "lat": 22.492600107814944, "lng": 114.13836743945717, "barrierFree": true}, {"name_en": "Tai Wo", "name_zh": "太和", "name": {"en": "Tai Wo", "zh": "太和"}, "exit": "A", "lat": 22.450919847087444, "lng": 114.16113594043391, "barrierFree": true}, {"name_en": "Tai Wo", "name_zh": "太和", "name": {"en": "Tai Wo", "zh": "太和"}, "exit": "B", "lat": 22.451127576405728, "lng": 114.16143708549902, "barrierFree": true}, {"name_en": "Tai Po Market", "name_zh": "大埔墟", "name": {"en": "Tai Po Market", "zh": "大埔墟"}, "exit": "A1", "lat": 22.44424899030064, "lng": 114.16995615597298, "barrierFree": false}, {"name_en": "Tai Po Market", "name_zh": "大埔墟", "name": {"en": "Tai Po Market", "zh": "大埔墟"}, "exit": "A2", "lat": 22.44436808114405, "lng": 114.16975975930474, "barrierFree": false}, {"name_en": "Tai Po Market", "name_zh": "大埔墟", "name": {"en": "Tai Po Market", "zh": "大埔墟"}, "exit": "A3", "lat": 22.44423728011677, "lng": 114.17007722854999, "barrierFree": false}, {"name_en": "Tai Po Market", "name_zh": "大埔墟", "name": {"en": "Tai Po Market", "zh": "大埔墟"}, "exit": "B", "lat": 22.444205799449076, "lng": 114.17111010416868, "barrierFree": true}, {"name_en": "University", "name_zh": "大學", "name": {"en": "University", "zh": "大學"}, "exit": "A", "lat": 22.41372515778254, "lng": 114.20992968117733, "barrierFree": true}, {"name_en": "University", "name_zh": "大學", "name": {"en": "University", "zh": "大學"}, "exit": "B", "lat": 22.413362638673206, "lng": 114.2103079900366, "barrierFree": true}, {"name_en": "University", "name_zh": "大學", "name": {"en": "University", "zh": "大學"}, "exit": "C", "lat": 22.414086450454317, "lng": 114.21004508978153, "barrierFree": true}, {"name_en": "University", "name_zh": "大學", "name": {"en": "University", "zh": "大學"}, "exit": "D", "lat": 22.415098071898708, "lng": 114.21073004013208, "barrierFree": true}, {"name_en": "Fo Tan", "name_zh": "火炭", "name": {"en": "Fo Tan", "zh": "火炭"}, "exit": "A", "lat": 22.394734625769214, "lng": 114.19799465143751, "barrierFree": true}, {"name_en": "Fo Tan", "name_zh": "火炭", "name": {"en": "Fo Tan", "zh": "火炭"}, "exit": "B", "lat": 22.394851341139443, "lng": 114.19775450614449, "barrierFree": true}, {"name_en": "Fo Tan", "name_zh": "火炭", "name": {"en": "Fo Tan", "zh": "火炭"}, "exit": "C", "lat": 22.39571935194002, "lng": 114.19864577981676, "barrierFree": true}, {"name_en": "Fo Tan", "name_zh": "火炭", "name": {"en": "Fo Tan", "zh": "火炭"}, "exit": "D", "lat": 22.395849037231304, "lng": 114.19840711964814, "barrierFree": false}, {"name_en": "Sha Tin", "name_zh": "沙田", "name": {"en": "Sha Tin", "zh": "沙田"}, "exit": "A1", "lat": 22.382846548879037, "lng": 114.18777614175507, "barrierFree": false}, {"name_en": "Sha Tin", "name_zh": "沙田", "name": {"en": "Sha Tin", "zh": "沙田"}, "exit": "A2", "lat": 22.382685890445142, "lng": 114.18773055413637, "barrierFree": false}, {"name_en": "Sha Tin", "name_zh": "沙田", "name": {"en": "Sha Tin", "zh": "沙田"}, "exit": "A3", "lat": 22.3824149876824, "lng": 114.18753632636007, "barrierFree": false}, {"name_en": "Sha Tin", "name_zh": "沙田", "name": {"en": "Sha Tin", "zh": "沙田"}, "exit": "A4", "lat": 22.382207117612754, "lng": 114.18730644602793, "barrierFree": false}, {"name_en": "Sha Tin", "name_zh": "沙田", "name": {"en": "Sha Tin", "zh": "沙田"}, "exit": "B", "lat": 22.382939799060967, "lng": 114.18762962955869, "barrierFree": true}, {"name_en": "Tai Wai", "name_zh": "大圍", "name": {"en": "Tai Wai", "zh": "大圍"}, "exit": "A", "lat": 22.373516799328648, "lng": 114.17890307188003, "barrierFree": true}, {"name_en": "Tai Wai", "name_zh": "大圍", "name": {"en": "Tai Wai", "zh": "大圍"}, "exit": "B", "lat": 22.37300374887633, "lng": 114.17936941533128, "barrierFree": true}, {"name_en": "Tai Wai", "name_zh": "大圍", "name": {"en": "Tai Wai", "zh": "大圍"}, "exit": "C", "lat": 22.37272045841667, "lng": 114.17802388414363, "barrierFree": true}, {"name_en": "Tai Wai", "name_zh": "大圍", "name": {"en": "Tai Wai", "zh": "大圍"}, "exit": "D", "lat": 22.373133885078108, "lng": 114.17825763932302, "barrierFree": true}, {"name_en": "Tai Wai", "name_zh": "大圍", "name": {"en": "Tai Wai", "zh": "大圍"}, "exit": "E", "lat": 22.372589868973513, "lng": 114.17751680798747, "barrierFree": false}, {"name_en": "Tai Wai", "name_zh": "大圍", "name": {"en": "Tai Wai", "zh": "大圍"}, "exit": "F", "lat": 22.372153658134245, "lng": 114.17783445430501, "barrierFree": false}, {"name_en": "Tai Wai", "name_zh": "大圍", "name": {"en": "Tai Wai", "zh": "大圍"}, "exit": "G", "lat": 22.372368874352397, "lng": 114.1772094624243, "barrierFree": false}, {"name_en": "Tai Wai", "name_zh": "大圍", "name": {"en": "Tai Wai", "zh": "大圍"}, "exit": "H", "lat": 22.373370015887645, "lng": 114.1795210487436, "barrierFree": false}, {"name_en": "Kowloon Tong", "name_zh": "九龍塘", "name": {"en": "Kowloon Tong", "zh": "九龍塘"}, "exit": "A1", "lat": 22.33691258730186, "lng": 114.17784124682748, "barrierFree": false}, {"name_en": "Kowloon Tong", "name_zh": "九龍塘", "name": {"en": "Kowloon Tong", "zh": "九龍塘"}, "exit": "A2", "lat": 22.3368910843232, "lng": 114.17824114022083, "barrierFree": false}, {"name_en": "Kowloon Tong", "name_zh": "九龍塘", "name": {"en": "Kowloon Tong", "zh": "九龍塘"}, "exit": "B", "lat": 22.33697767985535, "lng": 114.1765363018767, "barrierFree": false}, {"name_en": "Kowloon Tong", "name_zh": "九龍塘", "name": {"en": "Kowloon Tong", "zh": "九龍塘"}, "exit": "C1", "lat": 22.337010118520865, "lng": 114.17540343947273, "barrierFree": false}, {"name_en": "Kowloon Tong", "name_zh": "九龍塘", "name": {"en": "Kowloon Tong", "zh": "九龍塘"}, "exit": "C2", "lat": 22.336719580518633, "lng": 114.17557554700893, "barrierFree": false}, {"name_en": "Kowloon Tong", "name_zh": "九龍塘", "name": {"en": "Kowloon Tong", "zh": "九龍塘"}, "exit": "D", "lat": 22.33647192155635, "lng": 114.17652019081858, "barrierFree": true}, {"name_en": "Kowloon Tong", "name_zh": "九龍塘", "name": {"en": "Kowloon Tong", "zh": "九龍塘"}, "exit": "E", "lat": 22.336672254707995, "lng": 114.17751255373385, "barrierFree": true}, {"name_en": "Kowloon Tong", "name_zh": "九龍塘", "name": {"en": "Kowloon Tong", "zh": "九龍塘"}, "exit": "F", "lat": 22.337086126196475, "lng": 114.1762081905827, "barrierFree": true}, {"name_en": "Kowloon Tong", "name_zh": "九龍塘", "name": {"en": "Kowloon Tong", "zh": "九龍塘"}, "exit": "G1", "lat": 22.33707177579041, "lng": 114.17602207466399, "barrierFree": false}, {"name_en": "Kowloon Tong", "name_zh": "九龍塘", "name": {"en": "Kowloon Tong", "zh": "九龍塘"}, "exit": "G2", "lat": 22.337153050609956, "lng": 114.17595412381522, "barrierFree": false}, {"name_en": "Kowloon Tong", "name_zh": "九龍塘", "name": {"en": "Kowloon Tong", "zh": "九龍塘"}, "exit": "H", "lat": 22.337268836983732, "lng": 114.17543350626558, "barrierFree": true}, {"name_en": "Mong Kok East", "name_zh": "旺角東", "name": {"en": "Mong Kok East", "zh": "旺角東"}, "exit": "A", "lat": 22.321693814452313, "lng": 114.17265219582346, "barrierFree": false}, {"name_en": "Mong Kok East", "name_zh": "旺角東", "name": {"en": "Mong Kok East", "zh": "旺角東"}, "exit": "B", "lat": 22.32169584518689, "lng": 114.17249494203327, "barrierFree": true}, {"name_en": "Mong Kok East", "name_zh": "旺角東", "name": {"en": "Mong Kok East", "zh": "旺角東"}, "exit": "C", "lat": 22.322596626932455, "lng": 114.1725437119808, "barrierFree": true}, {"name_en": "Mong Kok East", "name_zh": "旺角東", "name": {"en": "Mong Kok East", "zh": "旺角東"}, "exit": "D", "lat": 22.322654136639567, "lng": 114.17265501114977, "barrierFree": true}, {"name_en": "Hung Hom", "name_zh": "紅磡", "name": {"en": "Hung Hom", "zh": "紅磡"}, "exit": "A1", "lat": 22.303461024876082, "lng": 114.18116390679606, "barrierFree": false}, {"name_en": "Hung Hom", "name_zh": "紅磡", "name": {"en": "Hung Hom", "zh": "紅磡"}, "exit": "A2", "lat": 22.30382960149325, "lng": 114.18144692254651, "barrierFree": false}, {"name_en": "Hung Hom", "name_zh": "紅磡", "name": {"en": "Hung Hom", "zh": "紅磡"}, "exit": "A3", "lat": 22.304105136004264, "lng": 114.18147902943566, "barrierFree": false}, {"name_en": "Hung Hom", "name_zh": "紅磡", "name": {"en": "Hung Hom", "zh": "紅磡"}, "exit": "B1", "lat": 22.304093102720106, "lng": 114.18314372812716, "barrierFree": false}, {"name_en": "Hung Hom", "name_zh": "紅磡", "name": {"en": "Hung Hom", "zh": "紅磡"}, "exit": "B2", "lat": 22.30354280123562, "lng": 114.18221814471246, "barrierFree": false}, {"name_en": "Hung Hom", "name_zh": "紅磡", "name": {"en": "Hung Hom", "zh": "紅磡"}, "exit": "C1", "lat": 22.303374399611855, "lng": 114.18240878530173, "barrierFree": false}, {"name_en": "Hung Hom", "name_zh": "紅磡", "name": {"en": "Hung Hom", "zh": "紅磡"}, "exit": "C2", "lat": 22.30283918639451, "lng": 114.18234713831141, "barrierFree": false}, {"name_en": "Hung Hom", "name_zh": "紅磡", "name": {"en": "Hung Hom", "zh": "紅磡"}, "exit": "C3", "lat": 22.302299193407027, "lng": 114.18229319759455, "barrierFree": false}, {"name_en": "Hung Hom", "name_zh": "紅磡", "name": {"en": "Hung Hom", "zh": "紅磡"}, "exit": "D1", "lat": 22.30206010991993, "lng": 114.18101052819235, "barrierFree": false}, {"name_en": "Hung Hom", "name_zh": "紅磡", "name": {"en": "Hung Hom", "zh": "紅磡"}, "exit": "D2", "lat": 22.30187161004715, "lng": 114.18207610494865, "barrierFree": false}, {"name_en": "Hung Hom", "name_zh": "紅磡", "name": {"en": "Hung Hom", "zh": "紅磡"}, "exit": "D3", "lat": 22.301365921025642, "lng": 114.18122207047999, "barrierFree": false}, {"name_en": "Hung Hom", "name_zh": "紅磡", "name": {"en": "Hung Hom", "zh": "紅磡"}, "exit": "D4", "lat": 22.300769903816736, "lng": 114.18109589098452, "barrierFree": false}, {"name_en": "Hung Hom", "name_zh": "紅磡", "name": {"en": "Hung Hom", "zh": "紅磡"}, "exit": "D5", "lat": 22.300742815980602, "lng": 114.18094061529025, "barrierFree": false}, {"name_en": "Hung Hom", "name_zh": "紅磡", "name": {"en": "Hung Hom", "zh": "紅磡"}, "exit": "D6", "lat": 22.302159446890865, "lng": 114.18131334456089, "barrierFree": false}, {"name_en": "Exhibition Centre", "name_zh": "會展", "name": {"en": "Exhibition Centre", "zh": "會展"}, "exit": "A1", "lat": 22.28136075073519, "lng": 114.1762435145727, "barrierFree": false}, {"name_en": "Exhibition Centre", "name_zh": "會展", "name": {"en": "Exhibition Centre", "zh": "會展"}, "exit": "A2", "lat": 22.28156128508462, "lng": 114.17625324620545, "barrierFree": false}, {"name_en": "Exhibition Centre", "name_zh": "會展", "name": {"en": "Exhibition Centre", "zh": "會展"}, "exit": "A3", "lat": 22.281333927888284, "lng": 114.17585603122632, "barrierFree": false}, {"name_en": "Exhibition Centre", "name_zh": "會展", "name": {"en": "Exhibition Centre", "zh": "會展"}, "exit": "B1", "lat": 22.281444210248495, "lng": 114.17487741879525, "barrierFree": false}, {"name_en": "Exhibition Centre", "name_zh": "會展", "name": {"en": "Exhibition Centre", "zh": "會展"}, "exit": "B2", "lat": 22.281584429619993, "lng": 114.17493481220653, "barrierFree": false}, {"name_en": "Exhibition Centre", "name_zh": "會展", "name": {"en": "Exhibition Centre", "zh": "會展"}, "exit": "B3", "lat": 22.281233747475177, "lng": 114.17458422581514, "barrierFree": false}, {"name_en": "Admiralty", "name_zh": "金鐘", "name": {"en": "Admiralty", "zh": "金鐘"}, "exit": "A", "lat": 22.279520469527107, "lng": 114.16507523894016, "barrierFree": true}, {"name_en": "Admiralty", "name_zh": "金鐘", "name": {"en": "Admiralty", "zh": "金鐘"}, "exit": "B", "lat": 22.27938545198142, "lng": 114.16402517191116, "barrierFree": false}, {"name_en": "Admiralty", "name_zh": "金鐘", "name": {"en": "Admiralty", "zh": "金鐘"}, "exit": "C1", "lat": 22.2785350852294, "lng": 114.16477371294691, "barrierFree": false}, {"name_en": "Admiralty", "name_zh": "金鐘", "name": {"en": "Admiralty", "zh": "金鐘"}, "exit": "C2", "lat": 22.27899667617494, "lng": 114.16485210961108, "barrierFree": false}, {"name_en": "Admiralty", "name_zh": "金鐘", "name": {"en": "Admiralty", "zh": "金鐘"}, "exit": "D", "lat": 22.278721285356404, "lng": 114.16561694653765, "barrierFree": true}, {"name_en": "Admiralty", "name_zh": "金鐘", "name": {"en": "Admiralty", "zh": "金鐘"}, "exit": "E", "lat": 22.278941890936995, "lng": 114.16606506928466, "barrierFree": true}, {"name_en": "Admiralty", "name_zh": "金鐘", "name": {"en": "Admiralty", "zh": "金鐘"}, "exit": "F", "lat": 22.278590382971345, "lng": 114.16607474111241, "barrierFree": false}, {"name_en": "Chai Wan", "name_zh": "柴灣", "name": {"en": "Chai Wan", "zh": "柴灣"}, "exit": "A", "lat": 22.26383822326666, "lng": 114.23681920690878, "barrierFree": true}, {"name_en": "Chai Wan", "name_zh": "柴灣", "name": {"en": "Chai Wan", "zh": "柴灣"}, "exit": "B", "lat": 22.26412380823622, "lng": 114.23679286049256, "barrierFree": false}, {"name_en": "Chai Wan", "name_zh": "柴灣", "name": {"en": "Chai Wan", "zh": "柴灣"}, "exit": "C", "lat": 22.264943307950663, "lng": 114.2372204074592, "barrierFree": false}, {"name_en": "Chai Wan", "name_zh": "柴灣", "name": {"en": "Chai Wan", "zh": "柴灣"}, "exit": "D", "lat": 22.26540459662876, "lng": 114.23745475919709, "barrierFree": true}, {"name_en": "Chai Wan", "name_zh": "柴灣", "name": {"en": "Chai Wan", "zh": "柴灣"}, "exit": "E", "lat": 22.26389909725966, "lng": 114.23667379719329, "barrierFree": false}, {"name_en": "Heng Fa Chuen", "name_zh": "杏花邨", "name": {"en": "Heng Fa Chuen", "zh": "杏花邨"}, "exit": "A1", "lat": 22.27705676625535, "lng": 114.23980047393069, "barrierFree": false}, {"name_en": "Heng Fa Chuen", "name_zh": "杏花邨", "name": {"en": "Heng Fa Chuen", "zh": "杏花邨"}, "exit": "A2", "lat": 22.276560518518473, "lng": 114.24020831169274, "barrierFree": false}, {"name_en": "Shau Kei Wan", "name_zh": "筲箕灣", "name": {"en": "Shau Kei Wan", "zh": "筲箕灣"}, "exit": "A1", "lat": 22.278955124538992, "lng": 114.22880111899636, "barrierFree": false}, {"name_en": "Shau Kei Wan", "name_zh": "筲箕灣", "name": {"en": "Shau Kei Wan", "zh": "筲箕灣"}, "exit": "A2", "lat": 22.278711311604454, "lng": 114.22867175375285, "barrierFree": false}, {"name_en": "Shau Kei Wan", "name_zh": "筲箕灣", "name": {"en": "Shau Kei Wan", "zh": "筲箕灣"}, "exit": "A3", "lat": 22.27867290406816, "lng": 114.22824648919725, "barrierFree": false}, {"name_en": "Shau Kei Wan", "name_zh": "筲箕灣", "name": {"en": "Shau Kei Wan", "zh": "筲箕灣"}, "exit": "B1", "lat": 22.27919433354073, "lng": 114.22967518655202, "barrierFree": false}, {"name_en": "Shau Kei Wan", "name_zh": "筲箕灣", "name": {"en": "Shau Kei Wan", "zh": "筲箕灣"}, "exit": "B2", "lat": 22.279808788588312, "lng": 114.22986629397703, "barrierFree": false}, {"name_en": "Shau Kei Wan", "name_zh": "筲箕灣", "name": {"en": "Shau Kei Wan", "zh": "筲箕灣"}, "exit": "B3", "lat": 22.279536017831248, "lng": 114.22824135154141, "barrierFree": false}, {"name_en": "Shau Kei Wan", "name_zh": "筲箕灣", "name": {"en": "Shau Kei Wan", "zh": "筲箕灣"}, "exit": "C", "lat": 22.27883384602831, "lng": 114.22974265585864, "barrierFree": false}, {"name_en": "Shau Kei Wan", "name_zh": "筲箕灣", "name": {"en": "Shau Kei Wan", "zh": "筲箕灣"}, "exit": "D1", "lat": 22.280418454396834, "lng": 114.22981754400668, "barrierFree": false}, {"name_en": "Shau Kei Wan", "name_zh": "筲箕灣", "name": {"en": "Shau Kei Wan", "zh": "筲箕灣"}, "exit": "D2", "lat": 22.27974661378324, "lng": 114.22893320683247, "barrierFree": false}, {"name_en": "Sai Wan Ho", "name_zh": "西灣河", "name": {"en": "Sai Wan Ho", "zh": "西灣河"}, "exit": "A", "lat": 22.282257298272256, "lng": 114.22244568023781, "barrierFree": false}, {"name_en": "Sai Wan Ho", "name_zh": "西灣河", "name": {"en": "Sai Wan Ho", "zh": "西灣河"}, "exit": "B", "lat": 22.281986099478086, "lng": 114.22219237764284, "barrierFree": true}, {"name_en": "Tai Koo", "name_zh": "太古", "name": {"en": "Tai Koo", "zh": "太古"}, "exit": "A1", "lat": 22.28507415358647, "lng": 114.21519628068438, "barrierFree": false}, {"name_en": "Tai Koo", "name_zh": "太古", "name": {"en": "Tai Koo", "zh": "太古"}, "exit": "A2", "lat": 22.284839288413014, "lng": 114.21548611104696, "barrierFree": false}, {"name_en": "Tai Koo", "name_zh": "太古", "name": {"en": "Tai Koo", "zh": "太古"}, "exit": "B", "lat": 22.284460674340572, "lng": 114.21502508814078, "barrierFree": false}, {"name_en": "Tai Koo", "name_zh": "太古", "name": {"en": "Tai Koo", "zh": "太古"}, "exit": "C", "lat": 22.284423113829963, "lng": 114.21682587083886, "barrierFree": false}, {"name_en": "Tai Koo", "name_zh": "太古", "name": {"en": "Tai Koo", "zh": "太古"}, "exit": "D1", "lat": 22.285931427741748, "lng": 114.21665048123305, "barrierFree": false}, {"name_en": "Tai Koo", "name_zh": "太古", "name": {"en": "Tai Koo", "zh": "太古"}, "exit": "D2", "lat": 22.28587353957597, "lng": 114.2168048790399, "barrierFree": false}, {"name_en": "Tai Koo", "name_zh": "太古", "name": {"en": "Tai Koo", "zh": "太古"}, "exit": "E1", "lat": 22.285512211095977, "lng": 114.21722203223455, "barrierFree": false}, {"name_en": "Tai Koo", "name_zh": "太古", "name": {"en": "Tai Koo", "zh": "太古"}, "exit": "E2", "lat": 22.28532229681537, "lng": 114.21693111186669, "barrierFree": false}, {"name_en": "Tai Koo", "name_zh": "太古", "name": {"en": "Tai Koo", "zh": "太古"}, "exit": "E3", "lat": 22.285354125087583, "lng": 114.21687699417808, "barrierFree": false}, {"name_en": "Quarry Bay", "name_zh": "鰂魚涌", "name": {"en": "Quarry Bay", "zh": "鰂魚涌"}, "exit": "A", "lat": 22.287778265587946, "lng": 114.2099276994776, "barrierFree": true}, {"name_en": "Quarry Bay", "name_zh": "鰂魚涌", "name": {"en": "Quarry Bay", "zh": "鰂魚涌"}, "exit": "B", "lat": 22.288469631554655, "lng": 114.2103718319324, "barrierFree": false}, {"name_en": "Quarry Bay", "name_zh": "鰂魚涌", "name": {"en": "Quarry Bay", "zh": "鰂魚涌"}, "exit": "C", "lat": 22.290571411370113, "lng": 114.20791858606809, "barrierFree": true}, {"name_en": "North Point", "name_zh": "北角", "name": {"en": "North Point", "zh": "北角"}, "exit": "A1", "lat": 22.292218525957054, "lng": 114.20028183147151, "barrierFree": false}, {"name_en": "North Point", "name_zh": "北角", "name": {"en": "North Point", "zh": "北角"}, "exit": "A2", "lat": 22.291907332457313, "lng": 114.20026927099963, "barrierFree": false}, {"name_en": "North Point", "name_zh": "北角", "name": {"en": "North Point", "zh": "北角"}, "exit": "A3", "lat": 22.292043513760152, "lng": 114.2002728259957, "barrierFree": false}, {"name_en": "North Point", "name_zh": "北角", "name": {"en": "North Point", "zh": "北角"}, "exit": "A4", "lat": 22.291623186507945, "lng": 114.20031274607841, "barrierFree": false}, {"name_en": "North Point", "name_zh": "北角", "name": {"en": "North Point", "zh": "北角"}, "exit": "B1", "lat": 22.29104677681702, "lng": 114.20045813247584, "barrierFree": false}, {"name_en": "North Point", "name_zh": "北角", "name": {"en": "North Point", "zh": "北角"}, "exit": "B2", "lat": 22.29104291559069, "lng": 114.20067855839432, "barrierFree": false}, {"name_en": "North Point", "name_zh": "北角", "name": {"en": "North Point", "zh": "北角"}, "exit": "B3", "lat": 22.291121836776714, "lng": 114.20087182286912, "barrierFree": false}, {"name_en": "North Point", "name_zh": "北角", "name": {"en": "North Point", "zh": "北角"}, "exit": "B4", "lat": 22.290710350163607, "lng": 114.20070309788281, "barrierFree": false}, {"name_en": "Fortress Hill", "name_zh": "炮台山", "name": {"en": "Fortress Hill", "zh": "炮台山"}, "exit": "A", "lat": 22.288088402248594, "lng": 114.19365344332859, "barrierFree": false}, {"name_en": "Fortress Hill", "name_zh": "炮台山", "name": {"en": "Fortress Hill", "zh": "炮台山"}, "exit": "B", "lat": 22.288406700001364, "lng": 114.19395854666315, "barrierFree": true}, {"name_en": "Tin Hau", "name_zh": "天后", "name": {"en": "Tin Hau", "zh": "天后"}, "exit": "A1", "lat": 22.28291951690687, "lng": 114.19209203630305, "barrierFree": false}, {"name_en": "Tin Hau", "name_zh": "天后", "name": {"en": "Tin Hau", "zh": "天后"}, "exit": "A2", "lat": 22.28291490460553, "lng": 114.19177263554053, "barrierFree": false}, {"name_en": "Tin Hau", "name_zh": "天后", "name": {"en": "Tin Hau", "zh": "天后"}, "exit": "B", "lat": 22.28238857409406, "lng": 114.19174411182884, "barrierFree": false}, {"name_en": "Causeway Bay", "name_zh": "銅鑼灣", "name": {"en": "Causeway Bay", "zh": "銅鑼灣"}, "exit": "A", "lat": 22.278545486622136, "lng": 114.18250217261227, "barrierFree": false}, {"name_en": "Causeway Bay", "name_zh": "銅鑼灣", "name": {"en": "Causeway Bay", "zh": "銅鑼灣"}, "exit": "B", "lat": 22.280166473641565, "lng": 114.18285337955497, "barrierFree": false}, {"name_en": "Causeway Bay", "name_zh": "銅鑼灣", "name": {"en": "Causeway Bay", "zh": "銅鑼灣"}, "exit": "C", "lat": 22.280486100222582, "lng": 114.18278538945493, "barrierFree": false}, {"name_en": "Causeway Bay", "name_zh": "銅鑼灣", "name": {"en": "Causeway Bay", "zh": "銅鑼灣"}, "exit": "D1", "lat": 22.280578067969294, "lng": 114.18425923857512, "barrierFree": false}, {"name_en": "Causeway Bay", "name_zh": "銅鑼灣", "name": {"en": "Causeway Bay", "zh": "銅鑼灣"}, "exit": "D2", "lat": 22.280290435531185, "lng": 114.18422048346777, "barrierFree": false}, {"name_en": "Causeway Bay", "name_zh": "銅鑼灣", "name": {"en": "Causeway Bay", "zh": "銅鑼灣"}, "exit": "D3", "lat": 22.280458732146347, "lng": 114.18436722006221, "barrierFree": false}, {"name_en": "Causeway Bay", "name_zh": "銅鑼灣", "name": {"en": "Causeway Bay", "zh": "銅鑼灣"}, "exit": "D4", "lat": 22.28046777690585, "lng": 114.18405671559503, "barrierFree": false}, {"name_en": "Causeway Bay", "name_zh": "銅鑼灣", "name": {"en": "Causeway Bay", "zh": "銅鑼灣"}, "exit": "E", "lat": 22.28038649856694, "lng": 114.1850596672547, "barrierFree": false}, {"name_en": "Causeway Bay", "name_zh": "銅鑼灣", "name": {"en": "Causeway Bay", "zh": "銅鑼灣"}, "exit": "F1", "lat": 22.27985256987554, "lng": 114.18434046484907, "barrierFree": false}, {"name_en": "Causeway Bay", "name_zh": "銅鑼灣", "name": {"en": "Causeway Bay", "zh": "銅鑼灣"}, "exit": "F2", "lat": 22.279889813477322, "lng": 114.18411490532448, "barrierFree": false}, {"name_en": "Wan Chai", "name_zh": "灣仔", "name": {"en": "Wan Chai", "zh": "灣仔"}, "exit": "A1", "lat": 22.27803305692153, "lng": 114.17322112549793, "barrierFree": false}, {"name_en": "Wan Chai", "name_zh": "灣仔", "name": {"en": "Wan Chai", "zh": "灣仔"}, "exit": "A2", "lat": 22.277825921686095, "lng": 114.1732466014392, "barrierFree": false}, {"name_en": "Wan Chai", "name_zh": "灣仔", "name": {"en": "Wan Chai", "zh": "灣仔"}, "exit": "A3", "lat": 22.27683372567781, "lng": 114.1733498125876, "barrierFree": false}, {"name_en": "Wan Chai", "name_zh": "灣仔", "name": {"en": "Wan Chai", "zh": "灣仔"}, "exit": "A4", "lat": 22.277425597756793, "lng": 114.17328137190721, "barrierFree": false}, {"name_en": "Wan Chai", "name_zh": "灣仔", "name": {"en": "Wan Chai", "zh": "灣仔"}, "exit": "A5", "lat": 22.277103363550253, "lng": 114.17330307206626, "barrierFree": false}, {"name_en": "Wan Chai", "name_zh": "灣仔", "name": {"en": "Wan Chai", "zh": "灣仔"}, "exit": "B1", "lat": 22.277384631988962, "lng": 114.17266924719299, "barrierFree": false}, {"name_en": "Wan Chai", "name_zh": "灣仔", "name": {"en": "Wan Chai", "zh": "灣仔"}, "exit": "B2", "lat": 22.277272211843854, "lng": 114.17265351603515, "barrierFree": false}, {"name_en": "Wan Chai", "name_zh": "灣仔", "name": {"en": "Wan Chai", "zh": "灣仔"}, "exit": "C", "lat": 22.27804859314638, "lng": 114.17290936049369, "barrierFree": false}, {"name_en": "Wan Chai", "name_zh": "灣仔", "name": {"en": "Wan Chai", "zh": "灣仔"}, "exit": "D", "lat": 22.27642030162223, "lng": 114.17247651977031, "barrierFree": false}, {"name_en": "Central", "name_zh": "中環", "name": {"en": "Central", "zh": "中環"}, "exit": "A", "lat": 22.282767432163357, "lng": 114.15788168878063, "barrierFree": true}, {"name_en": "Central", "name_zh": "中環", "name": {"en": "Central", "zh": "中環"}, "exit": "B", "lat": 22.282495918290707, "lng": 114.15761366840445, "barrierFree": false}, {"name_en": "Central", "name_zh": "中環", "name": {"en": "Central", "zh": "中環"}, "exit": "C", "lat": 22.28220466124269, "lng": 114.15742449560362, "barrierFree": false}, {"name_en": "Central", "name_zh": "中環", "name": {"en": "Central", "zh": "中環"}, "exit": "D1", "lat": 22.281811800474284, "lng": 114.15721895476216, "barrierFree": false}, {"name_en": "Central", "name_zh": "中環", "name": {"en": "Central", "zh": "中環"}, "exit": "D2", "lat": 22.281956276610668, "lng": 114.15710310165885, "barrierFree": false}, {"name_en": "Central", "name_zh": "中環", "name": {"en": "Central", "zh": "中環"}, "exit": "E", "lat": 22.28197665913796, "lng": 114.1581627605705, "barrierFree": false}, {"name_en": "Central", "name_zh": "中環", "name": {"en": "Central", "zh": "中環"}, "exit": "F", "lat": 22.28186417293558, "lng": 114.15859856205923, "barrierFree": false}, {"name_en": "Central", "name_zh": "中環", "name": {"en": "Central", "zh": "中環"}, "exit": "G", "lat": 22.28177064840462, "lng": 114.15764833458708, "barrierFree": false}, {"name_en": "Central", "name_zh": "中環", "name": {"en": "Central", "zh": "中環"}, "exit": "H", "lat": 22.281636443993612, "lng": 114.15874908263815, "barrierFree": false}, {"name_en": "Central", "name_zh": "中環", "name": {"en": "Central", "zh": "中環"}, "exit": "J1", "lat": 22.28123361759913, "lng": 114.16057205306743, "barrierFree": false}, {"name_en": "Central", "name_zh": "中環", "name": {"en": "Central", "zh": "中環"}, "exit": "J2", "lat": 22.281036698165398, "lng": 114.16090753682788, "barrierFree": false}, {"name_en": "Central", "name_zh": "中環", "name": {"en": "Central", "zh": "中環"}, "exit": "J3", "lat": 22.281278322449072, "lng": 114.16087839946938, "barrierFree": false}, {"name_en": "Central", "name_zh": "中環", "name": {"en": "Central", "zh": "中環"}, "exit": "K", "lat": 22.281179926261824, "lng": 114.15956967418984, "barrierFree": false}, {"name_en": "Central", "name_zh": "中環", "name": {"en": "Central", "zh": "中環"}, "exit": "L", "lat": 22.281344349520243, "lng": 114.16138781732775, "barrierFree": false}, {"name_en": "Sheung Wan", "name_zh": "上環", "name": {"en": "Sheung Wan", "zh": "上環"}, "exit": "A1", "lat": 22.286353534897803, "lng": 114.1522645900367, "barrierFree": false}, {"name_en": "Sheung Wan", "name_zh": "上環", "name": {"en": "Sheung Wan", "zh": "上環"}, "exit": "A2", "lat": 22.286135662765737, "lng": 114.15221065259963, "barrierFree": false}, {"name_en": "Sheung Wan", "name_zh": "上環", "name": {"en": "Sheung Wan", "zh": "上環"}, "exit": "B", "lat": 22.286688236344094, "lng": 114.15203536315799, "barrierFree": false}, {"name_en": "Sheung Wan", "name_zh": "上環", "name": {"en": "Sheung Wan", "zh": "上環"}, "exit": "C", "lat": 22.287040588890054, "lng": 114.15213513865218, "barrierFree": false}, {"name_en": "Sheung Wan", "name_zh": "上環", "name": {"en": "Sheung Wan", "zh": "上環"}, "exit": "D", "lat": 22.287618369430287, "lng": 114.15215277566803, "barrierFree": false}, {"name_en": "Sheung Wan", "name_zh": "上環", "name": {"en": "Sheung Wan", "zh": "上環"}, "exit": "E1", "lat": 22.28605624630606, "lng": 114.15333810988305, "barrierFree": false}, {"name_en": "Sheung Wan", "name_zh": "上環", "name": {"en": "Sheung Wan", "zh": "上環"}, "exit": "E2", "lat": 22.28589030258284, "lng": 114.15329750472343, "barrierFree": false}, {"name_en": "Sheung Wan", "name_zh": "上環", "name": {"en": "Sheung Wan", "zh": "上環"}, "exit": "E3", "lat": 22.286189492048027, "lng": 114.15364375335075, "barrierFree": false}, {"name_en": "Sheung Wan", "name_zh": "上環", "name": {"en": "Sheung Wan", "zh": "上環"}, "exit": "E4", "lat": 22.28662183771135, "lng": 114.1536734008146, "barrierFree": false}, {"name_en": "Sheung Wan", "name_zh": "上環", "name": {"en": "Sheung Wan", "zh": "上環"}, "exit": "E5", "lat": 22.286581192861732, "lng": 114.15362428135772, "barrierFree": false}, {"name_en": "Sai Ying Pun", "name_zh": "西營盤", "name": {"en": "Sai Ying Pun", "zh": "西營盤"}, "exit": "A1", "lat": 22.287128159422977, "lng": 114.14444336768432, "barrierFree": false}, {"name_en": "Sai Ying Pun", "name_zh": "西營盤", "name": {"en": "Sai Ying Pun", "zh": "西營盤"}, "exit": "A2", "lat": 22.28773353785338, "lng": 114.14423010159335, "barrierFree": false}, {"name_en": "Sai Ying Pun", "name_zh": "西營盤", "name": {"en": "Sai Ying Pun", "zh": "西營盤"}, "exit": "B1", "lat": 22.286481918675634, "lng": 114.14174486291694, "barrierFree": false}, {"name_en": "Sai Ying Pun", "name_zh": "西營盤", "name": {"en": "Sai Ying Pun", "zh": "西營盤"}, "exit": "B2", "lat": 22.286262887501774, "lng": 114.1417807126943, "barrierFree": false}, {"name_en": "Sai Ying Pun", "name_zh": "西營盤", "name": {"en": "Sai Ying Pun", "zh": "西營盤"}, "exit": "B3", "lat": 22.28758193016244, "lng": 114.14150523670251, "barrierFree": false}, {"name_en": "Sai Ying Pun", "name_zh": "西營盤", "name": {"en": "Sai Ying Pun", "zh": "西營盤"}, "exit": "C", "lat": 22.284565144730557, "lng": 114.14335337477533, "barrierFree": true}, {"name_en": "HKU", "name_zh": "香港大學", "name": {"en": "HKU", "zh": "香港大學"}, "exit": "A1", "lat": 22.283474567687794, "lng": 114.13669314243643, "barrierFree": false}, {"name_en": "HKU", "name_zh": "香港大學", "name": {"en": "HKU", "zh": "香港大學"}, "exit": "A2", "lat": 22.283474567687794, "lng": 114.13669314243643, "barrierFree": false}, {"name_en": "HKU", "name_zh": "香港大學", "name": {"en": "HKU", "zh": "香港大學"}, "exit": "B1", "lat": 22.285669105619988, "lng": 114.13683315152043, "barrierFree": false}, {"name_en": "HKU", "name_zh": "香港大學", "name": {"en": "HKU", "zh": "香港大學"}, "exit": "B2", "lat": 22.285615197679718, "lng": 114.13514295632112, "barrierFree": false}, {"name_en": "HKU", "name_zh": "香港大學", "name": {"en": "HKU", "zh": "香港大學"}, "exit": "C1", "lat": 22.284492463719854, "lng": 114.13456112116268, "barrierFree": false}, {"name_en": "HKU", "name_zh": "香港大學", "name": {"en": "HKU", "zh": "香港大學"}, "exit": "C2", "lat": 22.285862844374023, "lng": 114.13262795864046, "barrierFree": false}, {"name_en": "Kennedy Town", "name_zh": "堅尼地城", "name": {"en": "Kennedy Town", "zh": "堅尼地城"}, "exit": "A", "lat": 22.281131421005625, "lng": 114.12855633915139, "barrierFree": true}, {"name_en": "Kennedy Town", "name_zh": "堅尼地城", "name": {"en": "Kennedy Town", "zh": "堅尼地城"}, "exit": "B", "lat": 22.282071039846922, "lng": 114.12927914888613, "barrierFree": true}, {"name_en": "Kennedy Town", "name_zh": "堅尼地城", "name": {"en": "Kennedy Town", "zh": "堅尼地城"}, "exit": "C", "lat": 22.281254105786758, "lng": 114.12804330199879, "barrierFree": false}, {"name_en": "Tiu Keng Leng", "name_zh": "調景嶺", "name": {"en": "Tiu Keng Leng", "zh": "調景嶺"}, "exit": "A1", "lat": 22.304472822382113, "lng": 114.25271842497428, "barrierFree": false}, {"name_en": "Tiu Keng Leng", "name_zh": "調景嶺", "name": {"en": "Tiu Keng Leng", "zh": "調景嶺"}, "exit": "A2", "lat": 22.304328264564326, "lng": 114.25286392069634, "barrierFree": false}, {"name_en": "Tiu Keng Leng", "name_zh": "調景嶺", "name": {"en": "Tiu Keng Leng", "zh": "調景嶺"}, "exit": "B", "lat": 22.304093722675574, "lng": 114.25232031905054, "barrierFree": true}, {"name_en": "Yau Tong", "name_zh": "油塘", "name": {"en": "Yau Tong", "zh": "油塘"}, "exit": "A1", "lat": 22.29725242831053, "lng": 114.23771207203214, "barrierFree": false}, {"name_en": "Yau Tong", "name_zh": "油塘", "name": {"en": "Yau Tong", "zh": "油塘"}, "exit": "A2", "lat": 22.297157916844398, "lng": 114.23755958421991, "barrierFree": false}, {"name_en": "Yau Tong", "name_zh": "油塘", "name": {"en": "Yau Tong", "zh": "油塘"}, "exit": "B1", "lat": 22.298562993817836, "lng": 114.23674270354442, "barrierFree": false}, {"name_en": "Yau Tong", "name_zh": "油塘", "name": {"en": "Yau Tong", "zh": "油塘"}, "exit": "B2", "lat": 22.298469897917276, "lng": 114.2365995106452, "barrierFree": false}, {"name_en": "Lam Tin", "name_zh": "藍田", "name": {"en": "Lam Tin", "zh": "藍田"}, "exit": "A", "lat": 22.30800101041415, "lng": 114.23429918001251, "barrierFree": false}, {"name_en": "Lam Tin", "name_zh": "藍田", "name": {"en": "Lam Tin", "zh": "藍田"}, "exit": "B", "lat": 22.30689969410788, "lng": 114.23352498858512, "barrierFree": false}, {"name_en": "Lam Tin", "name_zh": "藍田", "name": {"en": "Lam Tin", "zh": "藍田"}, "exit": "C", "lat": 22.306023691514806, "lng": 114.23362168539029, "barrierFree": true}, {"name_en": "Lam Tin", "name_zh": "藍田", "name": {"en": "Lam Tin", "zh": "藍田"}, "exit": "D1", "lat": 22.307079035320044, "lng": 114.2318159389396, "barrierFree": false}, {"name_en": "Lam Tin", "name_zh": "藍田", "name": {"en": "Lam Tin", "zh": "藍田"}, "exit": "D2", "lat": 22.307228984659094, "lng": 114.23201983233957, "barrierFree": false}, {"name_en": "Kwun Tong", "name_zh": "觀塘", "name": {"en": "Kwun Tong", "zh": "觀塘"}, "exit": "A", "lat": 22.31259238288527, "lng": 114.22571400390926, "barrierFree": false}, {"name_en": "Kwun Tong", "name_zh": "觀塘", "name": {"en": "Kwun Tong", "zh": "觀塘"}, "exit": "A1", "lat": 22.312761518498316, "lng": 114.22579880158129, "barrierFree": false}, {"name_en": "Kwun Tong", "name_zh": "觀塘", "name": {"en": "Kwun Tong", "zh": "觀塘"}, "exit": "A2", "lat": 22.312403077046852, "lng": 114.22561530118035, "barrierFree": false}, {"name_en": "Kwun Tong", "name_zh": "觀塘", "name": {"en": "Kwun Tong", "zh": "觀塘"}, "exit": "B", "lat": 22.312086798284668, "lng": 114.22633074581216, "barrierFree": false}, {"name_en": "Kwun Tong", "name_zh": "觀塘", "name": {"en": "Kwun Tong", "zh": "觀塘"}, "exit": "B1", "lat": 22.31157208272539, "lng": 114.22620704341115, "barrierFree": false}, {"name_en": "Kwun Tong", "name_zh": "觀塘", "name": {"en": "Kwun Tong", "zh": "觀塘"}, "exit": "B2", "lat": 22.311508886243402, "lng": 114.22614878866247, "barrierFree": false}, {"name_en": "Kwun Tong", "name_zh": "觀塘", "name": {"en": "Kwun Tong", "zh": "觀塘"}, "exit": "B3", "lat": 22.31177983666944, "lng": 114.2260421239918, "barrierFree": false}, {"name_en": "Kwun Tong", "name_zh": "觀塘", "name": {"en": "Kwun Tong", "zh": "觀塘"}, "exit": "C", "lat": 22.31236552119203, "lng": 114.2264999135372, "barrierFree": false}, {"name_en": "Kwun Tong", "name_zh": "觀塘", "name": {"en": "Kwun Tong", "zh": "觀塘"}, "exit": "C1", "lat": 22.312438815006693, "lng": 114.2268770266818, "barrierFree": false}, {"name_en": "Kwun Tong", "name_zh": "觀塘", "name": {"en": "Kwun Tong", "zh": "觀塘"}, "exit": "C2", "lat": 22.31227626422458, "lng": 114.22687696874388, "barrierFree": false}, {"name_en": "Kwun Tong", "name_zh": "觀塘", "name": {"en": "Kwun Tong", "zh": "觀塘"}, "exit": "C3", "lat": 22.312737077242264, "lng": 114.2260521649946, "barrierFree": false}, {"name_en": "Kwun Tong", "name_zh": "觀塘", "name": {"en": "Kwun Tong", "zh": "觀塘"}, "exit": "D", "lat": 22.311684308888044, "lng": 114.22725430880817, "barrierFree": false}, {"name_en": "Kwun Tong", "name_zh": "觀塘", "name": {"en": "Kwun Tong", "zh": "觀塘"}, "exit": "D1", "lat": 22.31177938233331, "lng": 114.22751735065653, "barrierFree": false}, {"name_en": "Kwun Tong", "name_zh": "觀塘", "name": {"en": "Kwun Tong", "zh": "觀塘"}, "exit": "D2", "lat": 22.311887804030984, "lng": 114.22734269174765, "barrierFree": false}, {"name_en": "Kwun Tong", "name_zh": "觀塘", "name": {"en": "Kwun Tong", "zh": "觀塘"}, "exit": "D3", "lat": 22.311653110878318, "lng": 114.22701262267077, "barrierFree": false}, {"name_en": "Kwun Tong", "name_zh": "觀塘", "name": {"en": "Kwun Tong", "zh": "觀塘"}, "exit": "D4", "lat": 22.311454353370838, "lng": 114.22728430331813, "barrierFree": false}, {"name_en": "Ngau Tau Kok", "name_zh": "牛頭角", "name": {"en": "Ngau Tau Kok", "zh": "牛頭角"}, "exit": "A", "lat": 22.315521608101047, "lng": 114.21937682362753, "barrierFree": false}, {"name_en": "Ngau Tau Kok", "name_zh": "牛頭角", "name": {"en": "Ngau Tau Kok", "zh": "牛頭角"}, "exit": "B", "lat": 22.315642270767224, "lng": 114.21905210761554, "barrierFree": false}, {"name_en": "Ngau Tau Kok", "name_zh": "牛頭角", "name": {"en": "Ngau Tau Kok", "zh": "牛頭角"}, "exit": "B1", "lat": 22.315759663107766, "lng": 114.21947316288257, "barrierFree": false}, {"name_en": "Ngau Tau Kok", "name_zh": "牛頭角", "name": {"en": "Ngau Tau Kok", "zh": "牛頭角"}, "exit": "B2", "lat": 22.315946640654943, "lng": 114.21919395112485, "barrierFree": false}, {"name_en": "Ngau Tau Kok", "name_zh": "牛頭角", "name": {"en": "Ngau Tau Kok", "zh": "牛頭角"}, "exit": "B3", "lat": 22.316040206112582, "lng": 114.21875792825499, "barrierFree": false}, {"name_en": "Ngau Tau Kok", "name_zh": "牛頭角", "name": {"en": "Ngau Tau Kok", "zh": "牛頭角"}, "exit": "B4", "lat": 22.3158603182373, "lng": 114.21858192822214, "barrierFree": false}, {"name_en": "Ngau Tau Kok", "name_zh": "牛頭角", "name": {"en": "Ngau Tau Kok", "zh": "牛頭角"}, "exit": "B5", "lat": 22.315064660041426, "lng": 114.21874538835398, "barrierFree": false}, {"name_en": "Ngau Tau Kok", "name_zh": "牛頭角", "name": {"en": "Ngau Tau Kok", "zh": "牛頭角"}, "exit": "B6", "lat": 22.314971277954943, "lng": 114.2184734430837, "barrierFree": false}, {"name_en": "Kowloon Bay", "name_zh": "九龍灣", "name": {"en": "Kowloon Bay", "zh": "九龍灣"}, "exit": "A", "lat": 22.322624398726365, "lng": 114.2141631615004, "barrierFree": true}, {"name_en": "Kowloon Bay", "name_zh": "九龍灣", "name": {"en": "Kowloon Bay", "zh": "九龍灣"}, "exit": "B", "lat": 22.324456860714292, "lng": 114.2139797678524, "barrierFree": true}, {"name_en": "Kowloon Bay", "name_zh": "九龍灣", "name": {"en": "Kowloon Bay", "zh": "九龍灣"}, "exit": "C", "lat": 22.323650635941465, "lng": 114.21404065999985, "barrierFree": true}, {"name_en": "Choi Hung", "name_zh": "彩虹", "name": {"en": "Choi Hung", "zh": "彩虹"}, "exit": "A1", "lat": 22.33406587862343, "lng": 114.2096415529157, "barrierFree": false}, {"name_en": "Choi Hung", "name_zh": "彩虹", "name": {"en": "Choi Hung", "zh": "彩虹"}, "exit": "A2", "lat": 22.334008844194457, "lng": 114.2093508390585, "barrierFree": false}, {"name_en": "Choi Hung", "name_zh": "彩虹", "name": {"en": "Choi Hung", "zh": "彩虹"}, "exit": "A3", "lat": 22.334053407311373, "lng": 114.20969367221839, "barrierFree": false}, {"name_en": "Choi Hung", "name_zh": "彩虹", "name": {"en": "Choi Hung", "zh": "彩虹"}, "exit": "B", "lat": 22.334358140436702, "lng": 114.20934713615696, "barrierFree": false}, {"name_en": "Choi Hung", "name_zh": "彩虹", "name": {"en": "Choi Hung", "zh": "彩虹"}, "exit": "C1", "lat": 22.334901052958518, "lng": 114.20819880674532, "barrierFree": false}, {"name_en": "Choi Hung", "name_zh": "彩虹", "name": {"en": "Choi Hung", "zh": "彩虹"}, "exit": "C2", "lat": 22.335654444972555, "lng": 114.2078730938776, "barrierFree": false}, {"name_en": "Choi Hung", "name_zh": "彩虹", "name": {"en": "Choi Hung", "zh": "彩虹"}, "exit": "C3", "lat": 22.334848306324417, "lng": 114.20781119811792, "barrierFree": false}, {"name_en": "Choi Hung", "name_zh": "彩虹", "name": {"en": "Choi Hung", "zh": "彩虹"}, "exit": "C4", "lat": 22.335463889070503, "lng": 114.20750273633249, "barrierFree": false}, {"name_en": "Diamond Hill", "name_zh": "鑽石山", "name": {"en": "Diamond Hill", "zh": "鑽石山"}, "exit": "A1", "lat": 22.341012281493658, "lng": 114.20087368429982, "barrierFree": false}, {"name_en": "Diamond Hill", "name_zh": "鑽石山", "name": {"en": "Diamond Hill", "zh": "鑽石山"}, "exit": "A2", "lat": 22.340041266279595, "lng": 114.2003410573972, "barrierFree": false}, {"name_en": "Diamond Hill", "name_zh": "鑽石山", "name": {"en": "Diamond Hill", "zh": "鑽石山"}, "exit": "B", "lat": 22.339355851497977, "lng": 114.20204565976019, "barrierFree": true}, {"name_en": "Diamond Hill", "name_zh": "鑽石山", "name": {"en": "Diamond Hill", "zh": "鑽石山"}, "exit": "C1", "lat": 22.340158083666775, "lng": 114.20226803562791, "barrierFree": false}, {"name_en": "Diamond Hill", "name_zh": "鑽石山", "name": {"en": "Diamond Hill", "zh": "鑽石山"}, "exit": "C2", "lat": 22.34025871976843, "lng": 114.20244369008064, "barrierFree": false}, {"name_en": "Wong Tai Sin", "name_zh": "黃大仙", "name": {"en": "Wong Tai Sin", "zh": "黃大仙"}, "exit": "A", "lat": 22.34188763537036, "lng": 114.19448267168471, "barrierFree": false}, {"name_en": "Wong Tai Sin", "name_zh": "黃大仙", "name": {"en": "Wong Tai Sin", "zh": "黃大仙"}, "exit": "B1", "lat": 22.34180663430128, "lng": 114.1928872517973, "barrierFree": false}, {"name_en": "Wong Tai Sin", "name_zh": "黃大仙", "name": {"en": "Wong Tai Sin", "zh": "黃大仙"}, "exit": "B2", "lat": 22.341809068294438, "lng": 114.19342605016622, "barrierFree": false}, {"name_en": "Wong Tai Sin", "name_zh": "黃大仙", "name": {"en": "Wong Tai Sin", "zh": "黃大仙"}, "exit": "B3", "lat": 22.34204165912659, "lng": 114.19309713494798, "barrierFree": false}, {"name_en": "Wong Tai Sin", "name_zh": "黃大仙", "name": {"en": "Wong Tai Sin", "zh": "黃大仙"}, "exit": "C1", "lat": 22.341557458279215, "lng": 114.19298478686022, "barrierFree": false}, {"name_en": "Wong Tai Sin", "name_zh": "黃大仙", "name": {"en": "Wong Tai Sin", "zh": "黃大仙"}, "exit": "C2", "lat": 22.34141063372101, "lng": 114.1931833054285, "barrierFree": false}, {"name_en": "Wong Tai Sin", "name_zh": "黃大仙", "name": {"en": "Wong Tai Sin", "zh": "黃大仙"}, "exit": "D1", "lat": 22.341576623833046, "lng": 114.19503671826574, "barrierFree": false}, {"name_en": "Wong Tai Sin", "name_zh": "黃大仙", "name": {"en": "Wong Tai Sin", "zh": "黃大仙"}, "exit": "D2", "lat": 22.3412628173938, "lng": 114.19467066004246, "barrierFree": false}, {"name_en": "Wong Tai Sin", "name_zh": "黃大仙", "name": {"en": "Wong Tai Sin", "zh": "黃大仙"}, "exit": "D3", "lat": 22.341289277040282, "lng": 114.19439637487935, "barrierFree": false}, {"name_en": "Wong Tai Sin", "name_zh": "黃大仙", "name": {"en": "Wong Tai Sin", "zh": "黃大仙"}, "exit": "E", "lat": 22.341889398673704, "lng": 114.19464116113, "barrierFree": false}, {"name_en": "Lok Fu", "name_zh": "樂富", "name": {"en": "Lok Fu", "zh": "樂富"}, "exit": "A", "lat": 22.33821919187004, "lng": 114.18767599622242, "barrierFree": true}, {"name_en": "Lok Fu", "name_zh": "樂富", "name": {"en": "Lok Fu", "zh": "樂富"}, "exit": "B", "lat": 22.337785998237155, "lng": 114.18776589060174, "barrierFree": true}, {"name_en": "Shek Kip Mei", "name_zh": "石硤尾", "name": {"en": "Shek Kip Mei", "zh": "石硤尾"}, "exit": "A", "lat": 22.331676511780362, "lng": 114.1685557083056, "barrierFree": false}, {"name_en": "Shek Kip Mei", "name_zh": "石硤尾", "name": {"en": "Shek Kip Mei", "zh": "石硤尾"}, "exit": "B1", "lat": 22.331474430066265, "lng": 114.16914097692926, "barrierFree": false}, {"name_en": "Shek Kip Mei", "name_zh": "石硤尾", "name": {"en": "Shek Kip Mei", "zh": "石硤尾"}, "exit": "B2", "lat": 22.33169715193466, "lng": 114.16898875616131, "barrierFree": false}, {"name_en": "Shek Kip Mei", "name_zh": "石硤尾", "name": {"en": "Shek Kip Mei", "zh": "石硤尾"}, "exit": "C", "lat": 22.3327457842394, "lng": 114.16883137881163, "barrierFree": true}, {"name_en": "Prince Edward", "name_zh": "太子", "name": {"en": "Prince Edward", "zh": "太子"}, "exit": "A", "lat": 22.32507451933798, "lng": 114.16837133427835, "barrierFree": false}, {"name_en": "Prince Edward", "name_zh": "太子", "name": {"en": "Prince Edward", "zh": "太子"}, "exit": "B1", "lat": 22.324157827868653, "lng": 114.16859335752363, "barrierFree": false}, {"name_en": "Prince Edward", "name_zh": "太子", "name": {"en": "Prince Edward", "zh": "太子"}, "exit": "B2", "lat": 22.32387923531878, "lng": 114.16901937215397, "barrierFree": false}, {"name_en": "Prince Edward", "name_zh": "太子", "name": {"en": "Prince Edward", "zh": "太子"}, "exit": "C1", "lat": 22.324073119224657, "lng": 114.16820607300149, "barrierFree": false}, {"name_en": "Prince Edward", "name_zh": "太子", "name": {"en": "Prince Edward", "zh": "太子"}, "exit": "C2", "lat": 22.32404268736355, "lng": 114.16803223075534, "barrierFree": false}, {"name_en": "Prince Edward", "name_zh": "太子", "name": {"en": "Prince Edward", "zh": "太子"}, "exit": "D", "lat": 22.325099891991403, "lng": 114.16767882548703, "barrierFree": false}, {"name_en": "Prince Edward", "name_zh": "太子", "name": {"en": "Prince Edward", "zh": "太子"}, "exit": "E", "lat": 22.325154106051837, "lng": 114.1679633494355, "barrierFree": true}, {"name_en": "Mong Kok", "name_zh": "旺角", "name": {"en": "Mong Kok", "zh": "旺角"}, "exit": "A1", "lat": 22.32024886040346, "lng": 114.16896798539914, "barrierFree": false}, {"name_en": "Mong Kok", "name_zh": "旺角", "name": {"en": "Mong Kok", "zh": "旺角"}, "exit": "A2", "lat": 22.320194921871746, "lng": 114.16867064438222, "barrierFree": false}, {"name_en": "Mong Kok", "name_zh": "旺角", "name": {"en": "Mong Kok", "zh": "旺角"}, "exit": "B1", "lat": 22.320339008686236, "lng": 114.16937571209438, "barrierFree": false}, {"name_en": "Mong Kok", "name_zh": "旺角", "name": {"en": "Mong Kok", "zh": "旺角"}, "exit": "B2", "lat": 22.32039036048557, "lng": 114.16965512220706, "barrierFree": false}, {"name_en": "Mong Kok", "name_zh": "旺角", "name": {"en": "Mong Kok", "zh": "旺角"}, "exit": "B3", "lat": 22.320565334556868, "lng": 114.16970236881401, "barrierFree": false}, {"name_en": "Mong Kok", "name_zh": "旺角", "name": {"en": "Mong Kok", "zh": "旺角"}, "exit": "B4", "lat": 22.320510378059794, "lng": 114.16948165418667, "barrierFree": false}, {"name_en": "Mong Kok", "name_zh": "旺角", "name": {"en": "Mong Kok", "zh": "旺角"}, "exit": "C1", "lat": 22.31934827816004, "lng": 114.16914244718544, "barrierFree": false}, {"name_en": "Mong Kok", "name_zh": "旺角", "name": {"en": "Mong Kok", "zh": "旺角"}, "exit": "C2", "lat": 22.319298679865682, "lng": 114.16887817723574, "barrierFree": false}, {"name_en": "Mong Kok", "name_zh": "旺角", "name": {"en": "Mong Kok", "zh": "旺角"}, "exit": "C3", "lat": 22.318623259315302, "lng": 114.16863403835694, "barrierFree": false}, {"name_en": "Mong Kok", "name_zh": "旺角", "name": {"en": "Mong Kok", "zh": "旺角"}, "exit": "C4", "lat": 22.319134861843164, "lng": 114.16884027934425, "barrierFree": false}, {"name_en": "Mong Kok", "name_zh": "旺角", "name": {"en": "Mong Kok", "zh": "旺角"}, "exit": "D1", "lat": 22.319424318432247, "lng": 114.16958676847054, "barrierFree": false}, {"name_en": "Mong Kok", "name_zh": "旺角", "name": {"en": "Mong Kok", "zh": "旺角"}, "exit": "D2", "lat": 22.31945948303026, "lng": 114.16981487041411, "barrierFree": false}, {"name_en": "Mong Kok", "name_zh": "旺角", "name": {"en": "Mong Kok", "zh": "旺角"}, "exit": "D3", "lat": 22.319207516753856, "lng": 114.1700623311015, "barrierFree": false}, {"name_en": "Mong Kok", "name_zh": "旺角", "name": {"en": "Mong Kok", "zh": "旺角"}, "exit": "E1", "lat": 22.318334933619347, "lng": 114.16933374201191, "barrierFree": false}, {"name_en": "Mong Kok", "name_zh": "旺角", "name": {"en": "Mong Kok", "zh": "旺角"}, "exit": "E2", "lat": 22.318415665955985, "lng": 114.16978248672196, "barrierFree": false}, {"name_en": "Yau Ma Tei", "name_zh": "油麻地", "name": {"en": "Yau Ma Tei", "zh": "油麻地"}, "exit": "A1", "lat": 22.31381679257798, "lng": 114.17023845573853, "barrierFree": false}, {"name_en": "Yau Ma Tei", "name_zh": "油麻地", "name": {"en": "Yau Ma Tei", "zh": "油麻地"}, "exit": "A2", "lat": 22.313908383524552, "lng": 114.17074627756263, "barrierFree": false}, {"name_en": "Yau Ma Tei", "name_zh": "油麻地", "name": {"en": "Yau Ma Tei", "zh": "油麻地"}, "exit": "B1", "lat": 22.31305532558352, "lng": 114.17041780309566, "barrierFree": false}, {"name_en": "Yau Ma Tei", "name_zh": "油麻地", "name": {"en": "Yau Ma Tei", "zh": "油麻地"}, "exit": "B2", "lat": 22.31300625084738, "lng": 114.1701337633895, "barrierFree": false}, {"name_en": "Yau Ma Tei", "name_zh": "油麻地", "name": {"en": "Yau Ma Tei", "zh": "油麻地"}, "exit": "C", "lat": 22.311793521784406, "lng": 114.17065925798515, "barrierFree": false}, {"name_en": "Yau Ma Tei", "name_zh": "油麻地", "name": {"en": "Yau Ma Tei", "zh": "油麻地"}, "exit": "D", "lat": 22.312928963413032, "lng": 114.1709258878674, "barrierFree": false}, {"name_en": "Ho Man Tin", "name_zh": "何文田", "name": {"en": "Ho Man Tin", "zh": "何文田"}, "exit": "A1", "lat": 22.31032581391014, "lng": 114.18340171904518, "barrierFree": false}, {"name_en": "Ho Man Tin", "name_zh": "何文田", "name": {"en": "Ho Man Tin", "zh": "何文田"}, "exit": "A2", "lat": 22.311351214101094, "lng": 114.18352663105081, "barrierFree": false}, {"name_en": "Ho Man Tin", "name_zh": "何文田", "name": {"en": "Ho Man Tin", "zh": "何文田"}, "exit": "A3", "lat": 22.310385806900417, "lng": 114.18218137527145, "barrierFree": false}, {"name_en": "Ho Man Tin", "name_zh": "何文田", "name": {"en": "Ho Man Tin", "zh": "何文田"}, "exit": "B1", "lat": 22.30925062349072, "lng": 114.18293688658079, "barrierFree": false}, {"name_en": "Ho Man Tin", "name_zh": "何文田", "name": {"en": "Ho Man Tin", "zh": "何文田"}, "exit": "B2", "lat": 22.308959980181207, "lng": 114.18228676756904, "barrierFree": false}, {"name_en": "Whampoa", "name_zh": "黃埔", "name": {"en": "Whampoa", "zh": "黃埔"}, "exit": "A", "lat": 22.305808248189212, "lng": 114.18875213896587, "barrierFree": true}, {"name_en": "Whampoa", "name_zh": "黃埔", "name": {"en": "Whampoa", "zh": "黃埔"}, "exit": "B", "lat": 22.305247794605794, "lng": 114.18838827662415, "barrierFree": false}, {"name_en": "Whampoa", "name_zh": "黃埔", "name": {"en": "Whampoa", "zh": "黃埔"}, "exit": "C1", "lat": 22.3044189817071, "lng": 114.18970365661917, "barrierFree": false}, {"name_en": "Whampoa", "name_zh": "黃埔", "name": {"en": "Whampoa", "zh": "黃埔"}, "exit": "C2", "lat": 22.304511470070537, "lng": 114.18979089115325, "barrierFree": false}, {"name_en": "Whampoa", "name_zh": "黃埔", "name": {"en": "Whampoa", "zh": "黃埔"}, "exit": "D1", "lat": 22.304151061906758, "lng": 114.19057954914737, "barrierFree": false}, {"name_en": "Whampoa", "name_zh": "黃埔", "name": {"en": "Whampoa", "zh": "黃埔"}, "exit": "D2", "lat": 22.30405861080286, "lng": 114.19084802813481, "barrierFree": false}, {"name_en": "Wu Kai Sha", "name_zh": "烏溪沙", "name": {"en": "Wu Kai Sha", "zh": "烏溪沙"}, "exit": "A1", "lat": 22.429739351728397, "lng": 114.24375267474258, "barrierFree": false}, {"name_en": "Wu Kai Sha", "name_zh": "烏溪沙", "name": {"en": "Wu Kai Sha", "zh": "烏溪沙"}, "exit": "A2", "lat": 22.429396185968823, "lng": 114.24377193743842, "barrierFree": false}, {"name_en": "Wu Kai Sha", "name_zh": "烏溪沙", "name": {"en": "Wu Kai Sha", "zh": "烏溪沙"}, "exit": "B", "lat": 22.429056167872023, "lng": 114.24387475729795, "barrierFree": true}, {"name_en": "Ma On Shan", "name_zh": "馬鞍山", "name": {"en": "Ma On Shan", "zh": "馬鞍山"}, "exit": "A1", "lat": 22.42505606160018, "lng": 114.23124165115232, "barrierFree": false}, {"name_en": "Ma On Shan", "name_zh": "馬鞍山", "name": {"en": "Ma On Shan", "zh": "馬鞍山"}, "exit": "A2", "lat": 22.42519137089884, "lng": 114.2316788025234, "barrierFree": false}, {"name_en": "Ma On Shan", "name_zh": "馬鞍山", "name": {"en": "Ma On Shan", "zh": "馬鞍山"}, "exit": "B", "lat": 22.42471349904671, "lng": 114.23156405652654, "barrierFree": true}, {"name_en": "Heng On", "name_zh": "恆安", "name": {"en": "Heng On", "zh": "恆安"}, "exit": "A", "lat": 22.417824389098865, "lng": 114.22579967090743, "barrierFree": true}, {"name_en": "Heng On", "name_zh": "恆安", "name": {"en": "Heng On", "zh": "恆安"}, "exit": "B", "lat": 22.41778822886101, "lng": 114.2259259244893, "barrierFree": true}, {"name_en": "Heng On", "name_zh": "恆安", "name": {"en": "Heng On", "zh": "恆安"}, "exit": "C", "lat": 22.418412598922707, "lng": 114.22608628230384, "barrierFree": true}, {"name_en": "Tai Shui Hang", "name_zh": "大水坑", "name": {"en": "Tai Shui Hang", "zh": "大水坑"}, "exit": "A", "lat": 22.407693205968393, "lng": 114.22229005698682, "barrierFree": true}, {"name_en": "Tai Shui Hang", "name_zh": "大水坑", "name": {"en": "Tai Shui Hang", "zh": "大水坑"}, "exit": "B", "lat": 22.40764802889695, "lng": 114.222377451053, "barrierFree": true}, {"name_en": "Shek Mun", "name_zh": "石門", "name": {"en": "Shek Mun", "zh": "石門"}, "exit": "A", "lat": 22.387463232289175, "lng": 114.20805315266837, "barrierFree": false}, {"name_en": "Shek Mun", "name_zh": "石門", "name": {"en": "Shek Mun", "zh": "石門"}, "exit": "B", "lat": 22.387391646049817, "lng": 114.20813009877344, "barrierFree": true}, {"name_en": "Shek Mun", "name_zh": "石門", "name": {"en": "Shek Mun", "zh": "石門"}, "exit": "C", "lat": 22.388027103236865, "lng": 114.2086289574356, "barrierFree": true}, {"name_en": "Shek Mun", "name_zh": "石門", "name": {"en": "Shek Mun", "zh": "石門"}, "exit": "D", "lat": 22.38796410762759, "lng": 114.20869359154511, "barrierFree": true}, {"name_en": "City One", "name_zh": "第一城", "name": {"en": "City One", "zh": "第一城"}, "exit": "A", "lat": 22.38251854996933, "lng": 114.20308511149904, "barrierFree": true}, {"name_en": "City One", "name_zh": "第一城", "name": {"en": "City One", "zh": "第一城"}, "exit": "B", "lat": 22.382449283687436, "lng": 114.20315956609902, "barrierFree": true}, {"name_en": "City One", "name_zh": "第一城", "name": {"en": "City One", "zh": "第一城"}, "exit": "C", "lat": 22.38315003886326, "lng": 114.20374948426254, "barrierFree": true}, {"name_en": "City One", "name_zh": "第一城", "name": {"en": "City One", "zh": "第一城"}, "exit": "D", "lat": 22.383094623522204, "lng": 114.2038269212682, "barrierFree": true}, {"name_en": "Sha Tin Wai", "name_zh": "沙田圍", "name": {"en": "Sha Tin Wai", "zh": "沙田圍"}, "exit": "A", "lat": 22.376820937999284, "lng": 114.19463672649198, "barrierFree": true}, {"name_en": "Sha Tin Wai", "name_zh": "沙田圍", "name": {"en": "Sha Tin Wai", "zh": "沙田圍"}, "exit": "B", "lat": 22.37676765886417, "lng": 114.19468098452487, "barrierFree": true}, {"name_en": "Sha Tin Wai", "name_zh": "沙田圍", "name": {"en": "Sha Tin Wai", "zh": "沙田圍"}, "exit": "C", "lat": 22.377358428723976, "lng": 114.19538926717408, "barrierFree": true}, {"name_en": "Sha Tin Wai", "name_zh": "沙田圍", "name": {"en": "Sha Tin Wai", "zh": "沙田圍"}, "exit": "D", "lat": 22.377309992612915, "lng": 114.19543612111426, "barrierFree": true}, {"name_en": "Che Kung Temple", "name_zh": "車公廟", "name": {"en": "Che Kung Temple", "zh": "車公廟"}, "exit": "A", "lat": 22.374886738320072, "lng": 114.1857755819399, "barrierFree": false}, {"name_en": "Che Kung Temple", "name_zh": "車公廟", "name": {"en": "Che Kung Temple", "zh": "車公廟"}, "exit": "B", "lat": 22.374663621470862, "lng": 114.18575948292435, "barrierFree": true}, {"name_en": "Che Kung Temple", "name_zh": "車公廟", "name": {"en": "Che Kung Temple", "zh": "車公廟"}, "exit": "C", "lat": 22.374861970475994, "lng": 114.18633779292244, "barrierFree": true}, {"name_en": "Che Kung Temple", "name_zh": "車公廟", "name": {"en": "Che Kung Temple", "zh": "車公廟"}, "exit": "D", "lat": 22.374638379304326, "lng": 114.18632176221234, "barrierFree": true}, {"name_en": "Che Kung Temple", "name_zh": "車公廟", "name": {"en": "Che Kung Temple", "zh": "車公廟"}, "exit": "E", "lat": 22.374851685372576, "lng": 114.18658303210077, "barrierFree": false}, {"name_en": "Che Kung Temple", "name_zh": "車公廟", "name": {"en": "Che Kung Temple", "zh": "車公廟"}, "exit": "F", "lat": 22.374834321022256, "lng": 114.18695069190075, "barrierFree": true}, {"name_en": "Hin Keng", "name_zh": "顯徑", "name": {"en": "Hin Keng", "zh": "顯徑"}, "exit": "A", "lat": 22.363672719473477, "lng": 114.17091338636718, "barrierFree": true}, {"name_en": "Kai Tak", "name_zh": "啟德", "name": {"en": "Kai Tak", "zh": "啟德"}, "exit": "A", "lat": 22.3308412663416, "lng": 114.20053457262618, "barrierFree": true}, {"name_en": "Kai Tak", "name_zh": "啟德", "name": {"en": "Kai Tak", "zh": "啟德"}, "exit": "B", "lat": 22.331509871425265, "lng": 114.19978918348048, "barrierFree": false}, {"name_en": "Kai Tak", "name_zh": "啟德", "name": {"en": "Kai Tak", "zh": "啟德"}, "exit": "C", "lat": 22.330943629805244, "lng": 114.19865702940734, "barrierFree": false}, {"name_en": "Kai Tak", "name_zh": "啟德", "name": {"en": "Kai Tak", "zh": "啟德"}, "exit": "D", "lat": 22.329793751580443, "lng": 114.1988290956756, "barrierFree": true}, {"name_en": "Sung Wong Toi", "name_zh": "宋皇臺", "name": {"en": "Sung Wong Toi", "zh": "宋皇臺"}, "exit": "A", "lat": 22.32615486325204, "lng": 114.19192987973317, "barrierFree": true}, {"name_en": "Sung Wong Toi", "name_zh": "宋皇臺", "name": {"en": "Sung Wong Toi", "zh": "宋皇臺"}, "exit": "B1", "lat": 22.326979539504407, "lng": 114.18969520377256, "barrierFree": false}, {"name_en": "Sung Wong Toi", "name_zh": "宋皇臺", "name": {"en": "Sung Wong Toi", "zh": "宋皇臺"}, "exit": "B2", "lat": 22.328036214780454, "lng": 114.18984025851647, "barrierFree": false}, {"name_en": "Sung Wong Toi", "name_zh": "宋皇臺", "name": {"en": "Sung Wong Toi", "zh": "宋皇臺"}, "exit": "B3", "lat": 22.32854189874421, "lng": 114.18986111635924, "barrierFree": false}, {"name_en": "Sung Wong Toi", "name_zh": "宋皇臺", "name": {"en": "Sung Wong Toi", "zh": "宋皇臺"}, "exit": "D", "lat": 22.32564241699913, "lng": 114.19119643808993, "barrierFree": true}, {"name_en": "To Kwa Wan", "name_zh": "土瓜灣", "name": {"en": "To Kwa Wan", "zh": "土瓜灣"}, "exit": "A", "lat": 22.317812582787138, "lng": 114.18791176600047, "barrierFree": true}, {"name_en": "To Kwa Wan", "name_zh": "土瓜灣", "name": {"en": "To Kwa Wan", "zh": "土瓜灣"}, "exit": "B", "lat": 22.317930521214443, "lng": 114.18710661538996, "barrierFree": false}, {"name_en": "To Kwa Wan", "name_zh": "土瓜灣", "name": {"en": "To Kwa Wan", "zh": "土瓜灣"}, "exit": "C", "lat": 22.316278379597573, "lng": 114.18715284911926, "barrierFree": true}, {"name_en": "To Kwa Wan", "name_zh": "土瓜灣", "name": {"en": "To Kwa Wan", "zh": "土瓜灣"}, "exit": "D", "lat": 22.31532264254638, "lng": 114.18786482685739, "barrierFree": true}, {"name_en": "East Tsim Sha Tsui", "name_zh": "尖東", "name": {"en": "East Tsim Sha Tsui", "zh": "尖東"}, "exit": "J", "lat": 22.29505457768059, "lng": 114.17368958054595, "barrierFree": true}, {"name_en": "East Tsim Sha Tsui", "name_zh": "尖東", "name": {"en": "East Tsim Sha Tsui", "zh": "尖東"}, "exit": "K", "lat": 22.295482440258628, "lng": 114.1737252354191, "barrierFree": true}, {"name_en": "East Tsim Sha Tsui", "name_zh": "尖東", "name": {"en": "East Tsim Sha Tsui", "zh": "尖東"}, "exit": "L1", "lat": 22.29576561885392, "lng": 114.17312657733399, "barrierFree": false}, {"name_en": "East Tsim Sha Tsui", "name_zh": "尖東", "name": {"en": "East Tsim Sha Tsui", "zh": "尖東"}, "exit": "L3", "lat": 22.295645793541524, "lng": 114.17205175500004, "barrierFree": false}, {"name_en": "East Tsim Sha Tsui", "name_zh": "尖東", "name": {"en": "East Tsim Sha Tsui", "zh": "尖東"}, "exit": "L4", "lat": 22.295674327218215, "lng": 114.17175087459755, "barrierFree": false}, {"name_en": "East Tsim Sha Tsui", "name_zh": "尖東", "name": {"en": "East Tsim Sha Tsui", "zh": "尖東"}, "exit": "L5", "lat": 22.29614498479033, "lng": 114.17046171075384, "barrierFree": false}, {"name_en": "East Tsim Sha Tsui", "name_zh": "尖東", "name": {"en": "East Tsim Sha Tsui", "zh": "尖東"}, "exit": "L6", "lat": 22.29510647274086, "lng": 114.17070436505621, "barrierFree": false}, {"name_en": "East Tsim Sha Tsui", "name_zh": "尖東", "name": {"en": "East Tsim Sha Tsui", "zh": "尖東"}, "exit": "N1", "lat": 22.2974287360249, "lng": 114.17440060773806, "barrierFree": false}, {"name_en": "East Tsim Sha Tsui", "name_zh": "尖東", "name": {"en": "East Tsim Sha Tsui", "zh": "尖東"}, "exit": "N2", "lat": 22.297767977584485, "lng": 114.17399689944651, "barrierFree": false}, {"name_en": "East Tsim Sha Tsui", "name_zh": "尖東", "name": {"en": "East Tsim Sha Tsui", "zh": "尖東"}, "exit": "N3", "lat": 22.29732810122669, "lng": 114.17430461680837, "barrierFree": false}, {"name_en": "East Tsim Sha Tsui", "name_zh": "尖東", "name": {"en": "East Tsim Sha Tsui", "zh": "尖東"}, "exit": "N4", "lat": 22.297228754316627, "lng": 114.17372235238818, "barrierFree": false}, {"name_en": "East Tsim Sha Tsui", "name_zh": "尖東", "name": {"en": "East Tsim Sha Tsui", "zh": "尖東"}, "exit": "N5", "lat": 22.29702550479999, "lng": 114.17263476282046, "barrierFree": false}, {"name_en": "East Tsim Sha Tsui", "name_zh": "尖東", "name": {"en": "East Tsim Sha Tsui", "zh": "尖東"}, "exit": "P1", "lat": 22.296978300276937, "lng": 114.17613419729113, "barrierFree": false}, {"name_en": "East Tsim Sha Tsui", "name_zh": "尖東", "name": {"en": "East Tsim Sha Tsui", "zh": "尖東"}, "exit": "P2", "lat": 22.297310148654503, "lng": 114.17618663845819, "barrierFree": false}, {"name_en": "East Tsim Sha Tsui", "name_zh": "尖東", "name": {"en": "East Tsim Sha Tsui", "zh": "尖東"}, "exit": "P3", "lat": 22.297228425657572, "lng": 114.17535985750449, "barrierFree": false}, {"name_en": "Austin", "name_zh": "柯士甸", "name": {"en": "Austin", "zh": "柯士甸"}, "exit": "A", "lat": 22.305906099808052, "lng": 114.16635017472106, "barrierFree": true}, {"name_en": "Austin", "name_zh": "柯士甸", "name": {"en": "Austin", "zh": "柯士甸"}, "exit": "B1", "lat": 22.30531567694135, "lng": 114.16593771920472, "barrierFree": false}, {"name_en": "Austin", "name_zh": "柯士甸", "name": {"en": "Austin", "zh": "柯士甸"}, "exit": "B2", "lat": 22.305086082131904, "lng": 114.16606297258397, "barrierFree": false}, {"name_en": "Austin", "name_zh": "柯士甸", "name": {"en": "Austin", "zh": "柯士甸"}, "exit": "B3", "lat": 22.3052015514674, "lng": 114.16633695988564, "barrierFree": false}, {"name_en": "Austin", "name_zh": "柯士甸", "name": {"en": "Austin", "zh": "柯士甸"}, "exit": "B4", "lat": 22.305389669930527, "lng": 114.16591435110534, "barrierFree": false}, {"name_en": "Austin", "name_zh": "柯士甸", "name": {"en": "Austin", "zh": "柯士甸"}, "exit": "B5", "lat": 22.30585871355195, "lng": 114.16578877278037, "barrierFree": false}, {"name_en": "Austin", "name_zh": "柯士甸", "name": {"en": "Austin", "zh": "柯士甸"}, "exit": "C", "lat": 22.30425024526165, "lng": 114.16648582903264, "barrierFree": false}, {"name_en": "Austin", "name_zh": "柯士甸", "name": {"en": "Austin", "zh": "柯士甸"}, "exit": "D1", "lat": 22.30372503063541, "lng": 114.16672005629269, "barrierFree": false}, {"name_en": "Austin", "name_zh": "柯士甸", "name": {"en": "Austin", "zh": "柯士甸"}, "exit": "D2", "lat": 22.30342457244424, "lng": 114.16673922008027, "barrierFree": false}, {"name_en": "Austin", "name_zh": "柯士甸", "name": {"en": "Austin", "zh": "柯士甸"}, "exit": "D3", "lat": 22.303598074718142, "lng": 114.1671047570311, "barrierFree": false}, {"name_en": "Austin", "name_zh": "柯士甸", "name": {"en": "Austin", "zh": "柯士甸"}, "exit": "D4", "lat": 22.30381253669573, "lng": 114.16671096621717, "barrierFree": false}, {"name_en": "Austin", "name_zh": "柯士甸", "name": {"en": "Austin", "zh": "柯士甸"}, "exit": "E", "lat": 22.303143977476907, "lng": 114.16707241310127, "barrierFree": false}, {"name_en": "Austin", "name_zh": "柯士甸", "name": {"en": "Austin", "zh": "柯士甸"}, "exit": "F", "lat": 22.303153228452626, "lng": 114.16758468235864, "barrierFree": true}, {"name_en": "Nam Cheong", "name_zh": "南昌", "name": {"en": "Nam Cheong", "zh": "南昌"}, "exit": "A1", "lat": 22.327913692017617, "lng": 114.15359948459314, "barrierFree": false}, {"name_en": "Nam Cheong", "name_zh": "南昌", "name": {"en": "Nam Cheong", "zh": "南昌"}, "exit": "A2", "lat": 22.327740466356683, "lng": 114.15359258280186, "barrierFree": false}, {"name_en": "Nam Cheong", "name_zh": "南昌", "name": {"en": "Nam Cheong", "zh": "南昌"}, "exit": "B", "lat": 22.326250724148633, "lng": 114.15267495624207, "barrierFree": true}, {"name_en": "Nam Cheong", "name_zh": "南昌", "name": {"en": "Nam Cheong", "zh": "南昌"}, "exit": "C", "lat": 22.325002737378455, "lng": 114.1542711220155, "barrierFree": false}, {"name_en": "Nam Cheong", "name_zh": "南昌", "name": {"en": "Nam Cheong", "zh": "南昌"}, "exit": "D1", "lat": 22.325723776336876, "lng": 114.15524223894573, "barrierFree": false}, {"name_en": "Nam Cheong", "name_zh": "南昌", "name": {"en": "Nam Cheong", "zh": "南昌"}, "exit": "D2", "lat": 22.326372390441147, "lng": 114.15451792146786, "barrierFree": false}, {"name_en": "Mei Foo", "name_zh": "美孚", "name": {"en": "Mei Foo", "zh": "美孚"}, "exit": "A", "lat": 22.336675350949093, "lng": 114.14025624797388, "barrierFree": false}, {"name_en": "Mei Foo", "name_zh": "美孚", "name": {"en": "Mei Foo", "zh": "美孚"}, "exit": "B", "lat": 22.337681971516425, "lng": 114.1398523670791, "barrierFree": false}, {"name_en": "Mei Foo", "name_zh": "美孚", "name": {"en": "Mei Foo", "zh": "美孚"}, "exit": "C1", "lat": 22.338381250049228, "lng": 114.13834824575642, "barrierFree": false}, {"name_en": "Mei Foo", "name_zh": "美孚", "name": {"en": "Mei Foo", "zh": "美孚"}, "exit": "C2", "lat": 22.3382065508904, "lng": 114.13870987779458, "barrierFree": false}, {"name_en": "Mei Foo", "name_zh": "美孚", "name": {"en": "Mei Foo", "zh": "美孚"}, "exit": "D", "lat": 22.33794147949536, "lng": 114.13772164463862, "barrierFree": true}, {"name_en": "Mei Foo", "name_zh": "美孚", "name": {"en": "Mei Foo", "zh": "美孚"}, "exit": "E", "lat": 22.338232214068842, "lng": 114.13861024471669, "barrierFree": false}, {"name_en": "Mei Foo", "name_zh": "美孚", "name": {"en": "Mei Foo", "zh": "美孚"}, "exit": "F", "lat": 22.33854438996725, "lng": 114.13682119198131, "barrierFree": true}, {"name_en": "Mei Foo", "name_zh": "美孚", "name": {"en": "Mei Foo", "zh": "美孚"}, "exit": "G", "lat": 22.33967522456664, "lng": 114.13645664754613, "barrierFree": false}, {"name_en": "Tsuen Wan West", "name_zh": "荃灣西", "name": {"en": "Tsuen Wan West", "zh": "荃灣西"}, "exit": "A1", "lat": 22.368583012581762, "lng": 114.10986425508712, "barrierFree": false}, {"name_en": "Tsuen Wan West", "name_zh": "荃灣西", "name": {"en": "Tsuen Wan West", "zh": "荃灣西"}, "exit": "A2", "lat": 22.368805110907772, "lng": 114.10999860442479, "barrierFree": false}, {"name_en": "Tsuen Wan West", "name_zh": "荃灣西", "name": {"en": "Tsuen Wan West", "zh": "荃灣西"}, "exit": "B1", "lat": 22.368504744779454, "lng": 114.10886727676203, "barrierFree": false}, {"name_en": "Tsuen Wan West", "name_zh": "荃灣西", "name": {"en": "Tsuen Wan West", "zh": "荃灣西"}, "exit": "B2", "lat": 22.368384434686117, "lng": 114.10915635355033, "barrierFree": false}, {"name_en": "Tsuen Wan West", "name_zh": "荃灣西", "name": {"en": "Tsuen Wan West", "zh": "荃灣西"}, "exit": "C1", "lat": 22.367526095808152, "lng": 114.11016828288402, "barrierFree": false}, {"name_en": "Tsuen Wan West", "name_zh": "荃灣西", "name": {"en": "Tsuen Wan West", "zh": "荃灣西"}, "exit": "C2", "lat": 22.367729152374558, "lng": 114.11009265748633, "barrierFree": false}, {"name_en": "Tsuen Wan West", "name_zh": "荃灣西", "name": {"en": "Tsuen Wan West", "zh": "荃灣西"}, "exit": "C3", "lat": 22.36762748888254, "lng": 114.11042757010568, "barrierFree": false}, {"name_en": "Tsuen Wan West", "name_zh": "荃灣西", "name": {"en": "Tsuen Wan West", "zh": "荃灣西"}, "exit": "C4", "lat": 22.36753412467271, "lng": 114.11032369577704, "barrierFree": false}, {"name_en": "Tsuen Wan West", "name_zh": "荃灣西", "name": {"en": "Tsuen Wan West", "zh": "荃灣西"}, "exit": "C5", "lat": 22.367531459292383, "lng": 114.11040832327329, "barrierFree": false}, {"name_en": "Tsuen Wan West", "name_zh": "荃灣西", "name": {"en": "Tsuen Wan West", "zh": "荃灣西"}, "exit": "D", "lat": 22.367171125551234, "lng": 114.11090094846708, "barrierFree": true}, {"name_en": "Tsuen Wan West", "name_zh": "荃灣西", "name": {"en": "Tsuen Wan West", "zh": "荃灣西"}, "exit": "E1", "lat": 22.367776834230003, "lng": 114.11082091096597, "barrierFree": false}, {"name_en": "Tsuen Wan West", "name_zh": "荃灣西", "name": {"en": "Tsuen Wan West", "zh": "荃灣西"}, "exit": "E2", "lat": 22.36794764805011, "lng": 114.11084607468604, "barrierFree": false}, {"name_en": "Kam Sheung Road", "name_zh": "錦上路", "name": {"en": "Kam Sheung Road", "zh": "錦上路"}, "exit": "A", "lat": 22.43540854939011, "lng": 114.06288360567234, "barrierFree": true}, {"name_en": "Kam Sheung Road", "name_zh": "錦上路", "name": {"en": "Kam Sheung Road", "zh": "錦上路"}, "exit": "B", "lat": 22.4354974685048, "lng": 114.06307040146199, "barrierFree": true}, {"name_en": "Kam Sheung Road", "name_zh": "錦上路", "name": {"en": "Kam Sheung Road", "zh": "錦上路"}, "exit": "C", "lat": 22.43429747665787, "lng": 114.06393512252654, "barrierFree": true}, {"name_en": "Kam Sheung Road", "name_zh": "錦上路", "name": {"en": "Kam Sheung Road", "zh": "錦上路"}, "exit": "D", "lat": 22.4341743822376, "lng": 114.0637282088118, "barrierFree": true}, {"name_en": "Yuen Long", "name_zh": "元朗", "name": {"en": "Yuen Long", "zh": "元朗"}, "exit": "A", "lat": 22.44621699333648, "lng": 114.0338196647483, "barrierFree": false}, {"name_en": "Yuen Long", "name_zh": "元朗", "name": {"en": "Yuen Long", "zh": "元朗"}, "exit": "B", "lat": 22.445994639212095, "lng": 114.03345316548928, "barrierFree": false}, {"name_en": "Yuen Long", "name_zh": "元朗", "name": {"en": "Yuen Long", "zh": "元朗"}, "exit": "E", "lat": 22.445966931092055, "lng": 114.03466757022646, "barrierFree": true}, {"name_en": "Yuen Long", "name_zh": "元朗", "name": {"en": "Yuen Long", "zh": "元朗"}, "exit": "F", "lat": 22.44596077122402, "lng": 114.03522796400706, "barrierFree": true}, {"name_en": "Yuen Long", "name_zh": "元朗", "name": {"en": "Yuen Long", "zh": "元朗"}, "exit": "G1", "lat": 22.446212639311373, "lng": 114.03504649609768, "barrierFree": false}, {"name_en": "Yuen Long", "name_zh": "元朗", "name": {"en": "Yuen Long", "zh": "元朗"}, "exit": "G2", "lat": 22.446223450545, "lng": 114.03523372716894, "barrierFree": false}, {"name_en": "Yuen Long", "name_zh": "元朗", "name": {"en": "Yuen Long", "zh": "元朗"}, "exit": "H", "lat": 22.445968579441203, "lng": 114.0367333850803, "barrierFree": false}, {"name_en": "Yuen Long", "name_zh": "元朗", "name": {"en": "Yuen Long", "zh": "元朗"}, "exit": "J", "lat": 22.44627027536013, "lng": 114.03641449801177, "barrierFree": false}, {"name_en": "Yuen Long", "name_zh": "元朗", "name": {"en": "Yuen Long", "zh": "元朗"}, "exit": "K", "lat": 22.44594097769918, "lng": 114.03649423772593, "barrierFree": false}, {"name_en": "Long Ping", "name_zh": "朗屏", "name": {"en": "Long Ping", "zh": "朗屏"}, "exit": "A", "lat": 22.44773846204401, "lng": 114.02438132076082, "barrierFree": true}, {"name_en": "Long Ping", "name_zh": "朗屏", "name": {"en": "Long Ping", "zh": "朗屏"}, "exit": "B1", "lat": 22.447524499963944, "lng": 114.02466403292031, "barrierFree": false}, {"name_en": "Long Ping", "name_zh": "朗屏", "name": {"en": "Long Ping", "zh": "朗屏"}, "exit": "B2", "lat": 22.447526792033727, "lng": 114.02349812383783, "barrierFree": false}, {"name_en": "Long Ping", "name_zh": "朗屏", "name": {"en": "Long Ping", "zh": "朗屏"}, "exit": "C", "lat": 22.447571737503964, "lng": 114.02489342645087, "barrierFree": false}, {"name_en": "Long Ping", "name_zh": "朗屏", "name": {"en": "Long Ping", "zh": "朗屏"}, "exit": "D", "lat": 22.447569771062856, "lng": 114.02593945767684, "barrierFree": false}, {"name_en": "Long Ping", "name_zh": "朗屏", "name": {"en": "Long Ping", "zh": "朗屏"}, "exit": "E", "lat": 22.44756363297409, "lng": 114.02647040620747, "barrierFree": false}, {"name_en": "Long Ping", "name_zh": "朗屏", "name": {"en": "Long Ping", "zh": "朗屏"}, "exit": "F", "lat": 22.44779066720967, "lng": 114.02648809117312, "barrierFree": false}, {"name_en": "Tin Shui Wai", "name_zh": "天水圍", "name": {"en": "Tin Shui Wai", "zh": "天水圍"}, "exit": "A", "lat": 22.446810055688434, "lng": 114.00357434036277, "barrierFree": true}, {"name_en": "Tin Shui Wai", "name_zh": "天水圍", "name": {"en": "Tin Shui Wai", "zh": "天水圍"}, "exit": "B", "lat": 22.44697303815764, "lng": 114.00342427754966, "barrierFree": true}, {"name_en": "Tin Shui Wai", "name_zh": "天水圍", "name": {"en": "Tin Shui Wai", "zh": "天水圍"}, "exit": "C", "lat": 22.44809544582681, "lng": 114.0045228336866, "barrierFree": true}, {"name_en": "Tin Shui Wai", "name_zh": "天水圍", "name": {"en": "Tin Shui Wai", "zh": "天水圍"}, "exit": "D", "lat": 22.44907678183011, "lng": 114.0054436315886, "barrierFree": true}, {"name_en": "Tin Shui Wai", "name_zh": "天水圍", "name": {"en": "Tin Shui Wai", "zh": "天水圍"}, "exit": "E1", "lat": 22.449257793251586, "lng": 114.00561914285913, "barrierFree": false}, {"name_en": "Tin Shui Wai", "name_zh": "天水圍", "name": {"en": "Tin Shui Wai", "zh": "天水圍"}, "exit": "E2", "lat": 22.449170734225447, "lng": 114.00571588428969, "barrierFree": false}, {"name_en": "Tin Shui Wai", "name_zh": "天水圍", "name": {"en": "Tin Shui Wai", "zh": "天水圍"}, "exit": "E3", "lat": 22.449062471804723, "lng": 114.00582975960458, "barrierFree": false}, {"name_en": "Siu Hong", "name_zh": "兆康", "name": {"en": "Siu Hong", "zh": "兆康"}, "exit": "A", "lat": 22.410982884468993, "lng": 113.97859609764292, "barrierFree": true}, {"name_en": "Siu Hong", "name_zh": "兆康", "name": {"en": "Siu Hong", "zh": "兆康"}, "exit": "B1", "lat": 22.411768251515536, "lng": 113.97866651622732, "barrierFree": false}, {"name_en": "Siu Hong", "name_zh": "兆康", "name": {"en": "Siu Hong", "zh": "兆康"}, "exit": "B2", "lat": 22.412030229430947, "lng": 113.9787438434443, "barrierFree": false}, {"name_en": "Siu Hong", "name_zh": "兆康", "name": {"en": "Siu Hong", "zh": "兆康"}, "exit": "C1", "lat": 22.411827521440056, "lng": 113.97826436093781, "barrierFree": false}, {"name_en": "Siu Hong", "name_zh": "兆康", "name": {"en": "Siu Hong", "zh": "兆康"}, "exit": "C2", "lat": 22.412037637400182, "lng": 113.97815099027581, "barrierFree": false}, {"name_en": "Siu Hong", "name_zh": "兆康", "name": {"en": "Siu Hong", "zh": "兆康"}, "exit": "C3", "lat": 22.412165751258854, "lng": 113.97838465340969, "barrierFree": false}, {"name_en": "Siu Hong", "name_zh": "兆康", "name": {"en": "Siu Hong", "zh": "兆康"}, "exit": "D", "lat": 22.411905974361026, "lng": 113.9786292197516, "barrierFree": true}, {"name_en": "Siu Hong", "name_zh": "兆康", "name": {"en": "Siu Hong", "zh": "兆康"}, "exit": "E", "lat": 22.412728806871602, "lng": 113.97910482422878, "barrierFree": true}, {"name_en": "Siu Hong", "name_zh": "兆康", "name": {"en": "Siu Hong", "zh": "兆康"}, "exit": "F", "lat": 22.41204819884171, "lng": 113.97917803771527, "barrierFree": true}, {"name_en": "Tuen Mun", "name_zh": "屯門", "name": {"en": "Tuen Mun", "zh": "屯門"}, "exit": "A", "lat": 22.39436250721914, "lng": 113.97271693031315, "barrierFree": false}, {"name_en": "Tuen Mun", "name_zh": "屯門", "name": {"en": "Tuen Mun", "zh": "屯門"}, "exit": "B", "lat": 22.39409343253893, "lng": 113.97294141553103, "barrierFree": true}, {"name_en": "Tuen Mun", "name_zh": "屯門", "name": {"en": "Tuen Mun", "zh": "屯門"}, "exit": "C1", "lat": 22.394192091552412, "lng": 113.97351612066345, "barrierFree": false}, {"name_en": "Tuen Mun", "name_zh": "屯門", "name": {"en": "Tuen Mun", "zh": "屯門"}, "exit": "C2", "lat": 22.394442931470106, "lng": 113.97377530518912, "barrierFree": false}, {"name_en": "Tuen Mun", "name_zh": "屯門", "name": {"en": "Tuen Mun", "zh": "屯門"}, "exit": "C3", "lat": 22.394333759971357, "lng": 113.97313452999597, "barrierFree": false}, {"name_en": "Tuen Mun", "name_zh": "屯門", "name": {"en": "Tuen Mun", "zh": "屯門"}, "exit": "D", "lat": 22.39536277579012, "lng": 113.97338496023679, "barrierFree": false}, {"name_en": "Tuen Mun", "name_zh": "屯門", "name": {"en": "Tuen Mun", "zh": "屯門"}, "exit": "E", "lat": 22.39619896895694, "lng": 113.97359773771586, "barrierFree": false}, {"name_en": "Tuen Mun", "name_zh": "屯門", "name": {"en": "Tuen Mun", "zh": "屯門"}, "exit": "F1", "lat": 22.39642029365764, "lng": 113.97327412578699, "barrierFree": false}, {"name_en": "Tuen Mun", "name_zh": "屯門", "name": {"en": "Tuen Mun", "zh": "屯門"}, "exit": "F2", "lat": 22.396367820679316, "lng": 113.97350409659775, "barrierFree": false}, {"name_en": "Tung Chung", "name_zh": "東涌", "name": {"en": "Tung Chung", "zh": "東涌"}, "exit": "A", "lat": 22.288920071218744, "lng": 113.94110893627042, "barrierFree": true}, {"name_en": "Tung Chung", "name_zh": "東涌", "name": {"en": "Tung Chung", "zh": "東涌"}, "exit": "B", "lat": 22.288986809184337, "lng": 113.94090695469261, "barrierFree": true}, {"name_en": "Tung Chung", "name_zh": "東涌", "name": {"en": "Tung Chung", "zh": "東涌"}, "exit": "C", "lat": 22.289678727742622, "lng": 113.94172533550332, "barrierFree": true}, {"name_en": "Tung Chung", "name_zh": "東涌", "name": {"en": "Tung Chung", "zh": "東涌"}, "exit": "D", "lat": 22.28943006411879, "lng": 113.94179788584105, "barrierFree": true}, {"name_en": "Olympic", "name_zh": "奧運", "name": {"en": "Olympic", "zh": "奧運"}, "exit": "A1", "lat": 22.31820907135844, "lng": 114.15913594042675, "barrierFree": false}, {"name_en": "Olympic", "name_zh": "奧運", "name": {"en": "Olympic", "zh": "奧運"}, "exit": "A2", "lat": 22.318161660909936, "lng": 114.1591375672853, "barrierFree": false}, {"name_en": "Olympic", "name_zh": "奧運", "name": {"en": "Olympic", "zh": "奧運"}, "exit": "B", "lat": 22.318649498539248, "lng": 114.16056398436555, "barrierFree": false}, {"name_en": "Olympic", "name_zh": "奧運", "name": {"en": "Olympic", "zh": "奧運"}, "exit": "C1", "lat": 22.318340962239734, "lng": 114.16068449939704, "barrierFree": false}, {"name_en": "Olympic", "name_zh": "奧運", "name": {"en": "Olympic", "zh": "奧運"}, "exit": "C2", "lat": 22.31805601555764, "lng": 114.16100729135951, "barrierFree": false}, {"name_en": "Olympic", "name_zh": "奧運", "name": {"en": "Olympic", "zh": "奧運"}, "exit": "C3", "lat": 22.318125982826338, "lng": 114.16071406882382, "barrierFree": false}, {"name_en": "Olympic", "name_zh": "奧運", "name": {"en": "Olympic", "zh": "奧運"}, "exit": "C4", "lat": 22.318122410349126, "lng": 114.1610262879891, "barrierFree": false}, {"name_en": "Olympic", "name_zh": "奧運", "name": {"en": "Olympic", "zh": "奧運"}, "exit": "C5", "lat": 22.318181978596737, "lng": 114.16130770145845, "barrierFree": false}, {"name_en": "Olympic", "name_zh": "奧運", "name": {"en": "Olympic", "zh": "奧運"}, "exit": "D1", "lat": 22.31704118271805, "lng": 114.16124607684081, "barrierFree": false}, {"name_en": "Olympic", "name_zh": "奧運", "name": {"en": "Olympic", "zh": "奧運"}, "exit": "D2", "lat": 22.3167334557423, "lng": 114.16116087237816, "barrierFree": false}, {"name_en": "Olympic", "name_zh": "奧運", "name": {"en": "Olympic", "zh": "奧運"}, "exit": "D3", "lat": 22.316906892349245, "lng": 114.16112185221893, "barrierFree": false}, {"name_en": "Olympic", "name_zh": "奧運", "name": {"en": "Olympic", "zh": "奧運"}, "exit": "E", "lat": 22.317859436689822, "lng": 114.15915591839715, "barrierFree": false}, {"name_en": "Po Lam", "name_zh": "寶琳", "name": {"en": "Po Lam", "zh": "寶琳"}, "exit": "A1", "lat": 22.322915742562994, "lng": 114.25742140287127, "barrierFree": false}, {"name_en": "Po Lam", "name_zh": "寶琳", "name": {"en": "Po Lam", "zh": "寶琳"}, "exit": "A2", "lat": 22.323053161185058, "lng": 114.2575716048037, "barrierFree": false}, {"name_en": "Po Lam", "name_zh": "寶琳", "name": {"en": "Po Lam", "zh": "寶琳"}, "exit": "B1", "lat": 22.322068517159437, "lng": 114.25833806802946, "barrierFree": false}, {"name_en": "Po Lam", "name_zh": "寶琳", "name": {"en": "Po Lam", "zh": "寶琳"}, "exit": "B2", "lat": 22.321852505081903, "lng": 114.25824177577664, "barrierFree": false}, {"name_en": "Po Lam", "name_zh": "寶琳", "name": {"en": "Po Lam", "zh": "寶琳"}, "exit": "B3", "lat": 22.321808534095634, "lng": 114.25830160495755, "barrierFree": false}, {"name_en": "Po Lam", "name_zh": "寶琳", "name": {"en": "Po Lam", "zh": "寶琳"}, "exit": "C", "lat": 22.32248128224227, "lng": 114.25776361636922, "barrierFree": true}, {"name_en": "Hang Hau", "name_zh": "坑口", "name": {"en": "Hang Hau", "zh": "坑口"}, "exit": "A1", "lat": 22.31605215441458, "lng": 114.26415026903848, "barrierFree": false}, {"name_en": "Hang Hau", "name_zh": "坑口", "name": {"en": "Hang Hau", "zh": "坑口"}, "exit": "A2", "lat": 22.315880693290616, "lng": 114.26392693087942, "barrierFree": false}, {"name_en": "Hang Hau", "name_zh": "坑口", "name": {"en": "Hang Hau", "zh": "坑口"}, "exit": "B1", "lat": 22.315180549557272, "lng": 114.26466727203245, "barrierFree": false}, {"name_en": "Hang Hau", "name_zh": "坑口", "name": {"en": "Hang Hau", "zh": "坑口"}, "exit": "B2", "lat": 22.315194096712148, "lng": 114.26443119978326, "barrierFree": false}, {"name_en": "Tseung Kwan O", "name_zh": "將軍澳", "name": {"en": "Tseung Kwan O", "zh": "將軍澳"}, "exit": "A1", "lat": 22.30773677152486, "lng": 114.26074829376107, "barrierFree": false}, {"name_en": "Tseung Kwan O", "name_zh": "將軍澳", "name": {"en": "Tseung Kwan O", "zh": "將軍澳"}, "exit": "A2", "lat": 22.3075651650496, "lng": 114.2607967169417, "barrierFree": false}, {"name_en": "Tseung Kwan O", "name_zh": "將軍澳", "name": {"en": "Tseung Kwan O", "zh": "將軍澳"}, "exit": "B1", "lat": 22.3070072836096, "lng": 114.25915427959606, "barrierFree": false}, {"name_en": "Tseung Kwan O", "name_zh": "將軍澳", "name": {"en": "Tseung Kwan O", "zh": "將軍澳"}, "exit": "B2", "lat": 22.307187934975726, "lng": 114.25907674454196, "barrierFree": false}, {"name_en": "Tseung Kwan O", "name_zh": "將軍澳", "name": {"en": "Tseung Kwan O", "zh": "將軍澳"}, "exit": "C", "lat": 22.307539717895487, "lng": 114.2598824773493, "barrierFree": true}, {"name_en": "LOHAS Park", "name_zh": "康城", "name": {"en": "LOHAS Park", "zh": "康城"}, "exit": "B", "lat": 22.295337441920772, "lng": 114.2683786749161, "barrierFree": true}, {"name_en": "LOHAS Park", "name_zh": "康城", "name": {"en": "LOHAS Park", "zh": "康城"}, "exit": "C1", "lat": 22.29627059805192, "lng": 114.26957874198145, "barrierFree": false}, {"name_en": "LOHAS Park", "name_zh": "康城", "name": {"en": "LOHAS Park", "zh": "康城"}, "exit": "C2", "lat": 22.296064451564483, "lng": 114.26952375694779, "barrierFree": false}, {"name_en": "Tsuen Wan", "name_zh": "荃灣", "name": {"en": "Tsuen Wan", "zh": "荃灣"}, "exit": "A", "lat": 22.374048759750078, "lng": 114.11676539837678, "barrierFree": true}, {"name_en": "Tsuen Wan", "name_zh": "荃灣", "name": {"en": "Tsuen Wan", "zh": "荃灣"}, "exit": "A1", "lat": 22.37377892113016, "lng": 114.11691871430058, "barrierFree": false}, {"name_en": "Tsuen Wan", "name_zh": "荃灣", "name": {"en": "Tsuen Wan", "zh": "荃灣"}, "exit": "A2", "lat": 22.37387814522796, "lng": 114.11661766996104, "barrierFree": false}, {"name_en": "Tsuen Wan", "name_zh": "荃灣", "name": {"en": "Tsuen Wan", "zh": "荃灣"}, "exit": "A3", "lat": 22.374094681967378, "lng": 114.11609325016735, "barrierFree": false}, {"name_en": "Tsuen Wan", "name_zh": "荃灣", "name": {"en": "Tsuen Wan", "zh": "荃灣"}, "exit": "A4", "lat": 22.3741309747232, "lng": 114.1165495929155, "barrierFree": false}, {"name_en": "Tsuen Wan", "name_zh": "荃灣", "name": {"en": "Tsuen Wan", "zh": "荃灣"}, "exit": "B1", "lat": 22.37313941382511, "lng": 114.11824727314132, "barrierFree": false}, {"name_en": "Tsuen Wan", "name_zh": "荃灣", "name": {"en": "Tsuen Wan", "zh": "荃灣"}, "exit": "B2", "lat": 22.373013091593673, "lng": 114.11853861634673, "barrierFree": false}, {"name_en": "Tsuen Wan", "name_zh": "荃灣", "name": {"en": "Tsuen Wan", "zh": "荃灣"}, "exit": "B3", "lat": 22.373183526352943, "lng": 114.11861816483005, "barrierFree": false}, {"name_en": "Tsuen Wan", "name_zh": "荃灣", "name": {"en": "Tsuen Wan", "zh": "荃灣"}, "exit": "C", "lat": 22.37342627888515, "lng": 114.11853345184453, "barrierFree": true}, {"name_en": "Tsuen Wan", "name_zh": "荃灣", "name": {"en": "Tsuen Wan", "zh": "荃灣"}, "exit": "D", "lat": 22.37380374694285, "lng": 114.11726358366849, "barrierFree": true}, {"name_en": "Tsuen Wan", "name_zh": "荃灣", "name": {"en": "Tsuen Wan", "zh": "荃灣"}, "exit": "E", "lat": 22.37333926230108, "lng": 114.11829051127413, "barrierFree": false}, {"name_en": "Tai Wo Hau", "name_zh": "大窩口", "name": {"en": "Tai Wo Hau", "zh": "大窩口"}, "exit": "A", "lat": 22.370985466938432, "lng": 114.1259005816719, "barrierFree": false}, {"name_en": "Tai Wo Hau", "name_zh": "大窩口", "name": {"en": "Tai Wo Hau", "zh": "大窩口"}, "exit": "B", "lat": 22.370644474086763, "lng": 114.12437426323739, "barrierFree": true}, {"name_en": "Kwai Hing", "name_zh": "葵興", "name": {"en": "Kwai Hing", "zh": "葵興"}, "exit": "A", "lat": 22.363740174430486, "lng": 114.13128361814763, "barrierFree": true}, {"name_en": "Kwai Hing", "name_zh": "葵興", "name": {"en": "Kwai Hing", "zh": "葵興"}, "exit": "B", "lat": 22.362756308876268, "lng": 114.13123829334435, "barrierFree": true}, {"name_en": "Kwai Hing", "name_zh": "葵興", "name": {"en": "Kwai Hing", "zh": "葵興"}, "exit": "C", "lat": 22.362609222644622, "lng": 114.13109877534218, "barrierFree": true}, {"name_en": "Kwai Hing", "name_zh": "葵興", "name": {"en": "Kwai Hing", "zh": "葵興"}, "exit": "D", "lat": 22.36359829650518, "lng": 114.13113569454951, "barrierFree": false}, {"name_en": "Kwai Hing", "name_zh": "葵興", "name": {"en": "Kwai Hing", "zh": "葵興"}, "exit": "E", "lat": 22.362669927794283, "lng": 114.13128850709, "barrierFree": true}, {"name_en": "Kwai Fong", "name_zh": "葵芳", "name": {"en": "Kwai Fong", "zh": "葵芳"}, "exit": "A", "lat": 22.35726360172376, "lng": 114.12823060018566, "barrierFree": false}, {"name_en": "Kwai Fong", "name_zh": "葵芳", "name": {"en": "Kwai Fong", "zh": "葵芳"}, "exit": "B", "lat": 22.35627440988904, "lng": 114.12747534622248, "barrierFree": false}, {"name_en": "Kwai Fong", "name_zh": "葵芳", "name": {"en": "Kwai Fong", "zh": "葵芳"}, "exit": "C", "lat": 22.356368488021786, "lng": 114.1273387243259, "barrierFree": true}, {"name_en": "Kwai Fong", "name_zh": "葵芳", "name": {"en": "Kwai Fong", "zh": "葵芳"}, "exit": "D", "lat": 22.357357600768974, "lng": 114.1280769700508, "barrierFree": true}, {"name_en": "Kwai Fong", "name_zh": "葵芳", "name": {"en": "Kwai Fong", "zh": "葵芳"}, "exit": "E", "lat": 22.3571024816538, "lng": 114.12789336480799, "barrierFree": false}, {"name_en": "Cheung Sha Wan", "name_zh": "長沙灣", "name": {"en": "Cheung Sha Wan", "zh": "長沙灣"}, "exit": "A", "lat": 22.335159898386237, "lng": 114.1568217560112, "barrierFree": false}, {"name_en": "Cheung Sha Wan", "name_zh": "長沙灣", "name": {"en": "Cheung Sha Wan", "zh": "長沙灣"}, "exit": "A1", "lat": 22.334312729406225, "lng": 114.15722227227467, "barrierFree": false}, {"name_en": "Cheung Sha Wan", "name_zh": "長沙灣", "name": {"en": "Cheung Sha Wan", "zh": "長沙灣"}, "exit": "A2", "lat": 22.334905961650733, "lng": 114.15777638188446, "barrierFree": false}, {"name_en": "Cheung Sha Wan", "name_zh": "長沙灣", "name": {"en": "Cheung Sha Wan", "zh": "長沙灣"}, "exit": "A3", "lat": 22.334896745253783, "lng": 114.15717478066387, "barrierFree": false}, {"name_en": "Cheung Sha Wan", "name_zh": "長沙灣", "name": {"en": "Cheung Sha Wan", "zh": "長沙灣"}, "exit": "B", "lat": 22.335760686988188, "lng": 114.15539111174095, "barrierFree": false}, {"name_en": "Cheung Sha Wan", "name_zh": "長沙灣", "name": {"en": "Cheung Sha Wan", "zh": "長沙灣"}, "exit": "C1", "lat": 22.335603443892495, "lng": 114.15648446718608, "barrierFree": false}, {"name_en": "Cheung Sha Wan", "name_zh": "長沙灣", "name": {"en": "Cheung Sha Wan", "zh": "長沙灣"}, "exit": "C2", "lat": 22.33648644043638, "lng": 114.1551189221803, "barrierFree": false}, {"name_en": "Sham Shui Po", "name_zh": "深水埗", "name": {"en": "Sham Shui Po", "zh": "深水埗"}, "exit": "A1", "lat": 22.33027579983208, "lng": 114.16264167064311, "barrierFree": false}, {"name_en": "Sham Shui Po", "name_zh": "深水埗", "name": {"en": "Sham Shui Po", "zh": "深水埗"}, "exit": "A2", "lat": 22.329988890327506, "lng": 114.16244748099808, "barrierFree": false}, {"name_en": "Sham Shui Po", "name_zh": "深水埗", "name": {"en": "Sham Shui Po", "zh": "深水埗"}, "exit": "B1", "lat": 22.330490794826172, "lng": 114.16289511118279, "barrierFree": false}, {"name_en": "Sham Shui Po", "name_zh": "深水埗", "name": {"en": "Sham Shui Po", "zh": "深水埗"}, "exit": "B2", "lat": 22.33079406870384, "lng": 114.16310501879182, "barrierFree": false}, {"name_en": "Sham Shui Po", "name_zh": "深水埗", "name": {"en": "Sham Shui Po", "zh": "深水埗"}, "exit": "C1", "lat": 22.330949176069293, "lng": 114.1617610385621, "barrierFree": false}, {"name_en": "Sham Shui Po", "name_zh": "深水埗", "name": {"en": "Sham Shui Po", "zh": "深水埗"}, "exit": "C2", "lat": 22.330664862331393, "lng": 114.16157029734197, "barrierFree": false}, {"name_en": "Sham Shui Po", "name_zh": "深水埗", "name": {"en": "Sham Shui Po", "zh": "深水埗"}, "exit": "D1", "lat": 22.331167147224935, "lng": 114.16203863009852, "barrierFree": false}, {"name_en": "Sham Shui Po", "name_zh": "深水埗", "name": {"en": "Sham Shui Po", "zh": "深水埗"}, "exit": "D2", "lat": 22.331462635359088, "lng": 114.16223919390711, "barrierFree": false}, {"name_en": "Jordan", "name_zh": "佐敦", "name": {"en": "Jordan", "zh": "佐敦"}, "exit": "A", "lat": 22.30542416487329, "lng": 114.17127721698154, "barrierFree": false}, {"name_en": "Jordan", "name_zh": "佐敦", "name": {"en": "Jordan", "zh": "佐敦"}, "exit": "B1", "lat": 22.30552440046781, "lng": 114.17185557531197, "barrierFree": false}, {"name_en": "Jordan", "name_zh": "佐敦", "name": {"en": "Jordan", "zh": "佐敦"}, "exit": "B2", "lat": 22.305708113819446, "lng": 114.17224013032178, "barrierFree": false}, {"name_en": "Jordan", "name_zh": "佐敦", "name": {"en": "Jordan", "zh": "佐敦"}, "exit": "C1", "lat": 22.3043262892988, "lng": 114.17147722990894, "barrierFree": false}, {"name_en": "Jordan", "name_zh": "佐敦", "name": {"en": "Jordan", "zh": "佐敦"}, "exit": "C2", "lat": 22.304306638424865, "lng": 114.17118433377046, "barrierFree": false}, {"name_en": "Jordan", "name_zh": "佐敦", "name": {"en": "Jordan", "zh": "佐敦"}, "exit": "D", "lat": 22.303782974949975, "lng": 114.1719054805046, "barrierFree": false}, {"name_en": "Jordan", "name_zh": "佐敦", "name": {"en": "Jordan", "zh": "佐敦"}, "exit": "E", "lat": 22.304299682794387, "lng": 114.1719656045917, "barrierFree": false}, {"name_en": "Tsim Sha Tsui", "name_zh": "尖沙咀", "name": {"en": "Tsim Sha Tsui", "zh": "尖沙咀"}, "exit": "A1", "lat": 22.29831252448648, "lng": 114.17187987149526, "barrierFree": false}, {"name_en": "Tsim Sha Tsui", "name_zh": "尖沙咀", "name": {"en": "Tsim Sha Tsui", "zh": "尖沙咀"}, "exit": "A2", "lat": 22.29818891572569, "lng": 114.17242138915572, "barrierFree": false}, {"name_en": "Tsim Sha Tsui", "name_zh": "尖沙咀", "name": {"en": "Tsim Sha Tsui", "zh": "尖沙咀"}, "exit": "B1", "lat": 22.298746942038083, "lng": 114.17229915944957, "barrierFree": false}, {"name_en": "Tsim Sha Tsui", "name_zh": "尖沙咀", "name": {"en": "Tsim Sha Tsui", "zh": "尖沙咀"}, "exit": "B2", "lat": 22.298761744031953, "lng": 114.17254521114795, "barrierFree": false}, {"name_en": "Tsim Sha Tsui", "name_zh": "尖沙咀", "name": {"en": "Tsim Sha Tsui", "zh": "尖沙咀"}, "exit": "C1", "lat": 22.29687475485372, "lng": 114.1721207103357, "barrierFree": false}, {"name_en": "Tsim Sha Tsui", "name_zh": "尖沙咀", "name": {"en": "Tsim Sha Tsui", "zh": "尖沙咀"}, "exit": "C2", "lat": 22.29720730805147, "lng": 114.17210251162713, "barrierFree": false}, {"name_en": "Tsim Sha Tsui", "name_zh": "尖沙咀", "name": {"en": "Tsim Sha Tsui", "zh": "尖沙咀"}, "exit": "D1", "lat": 22.29764028417234, "lng": 114.17236845394903, "barrierFree": false}, {"name_en": "Tsim Sha Tsui", "name_zh": "尖沙咀", "name": {"en": "Tsim Sha Tsui", "zh": "尖沙咀"}, "exit": "D2", "lat": 22.297663655195485, "lng": 114.1727015202109, "barrierFree": false}, {"name_en": "Tsim Sha Tsui", "name_zh": "尖沙咀", "name": {"en": "Tsim Sha Tsui", "zh": "尖沙咀"}, "exit": "D3", "lat": 22.297604305035414, "lng": 114.17303315255667, "barrierFree": false}, {"name_en": "Tsim Sha Tsui", "name_zh": "尖沙咀", "name": {"en": "Tsim Sha Tsui", "zh": "尖沙咀"}, "exit": "E", "lat": 22.296189288001827, "lng": 114.17215489916602, "barrierFree": false}, {"name_en": "Tsim Sha Tsui", "name_zh": "尖沙咀", "name": {"en": "Tsim Sha Tsui", "zh": "尖沙咀"}, "exit": "H", "lat": 22.296614631092574, "lng": 114.17203380135149, "barrierFree": true}, {"name_en": "Tsim Sha Tsui", "name_zh": "尖沙咀", "name": {"en": "Tsim Sha Tsui", "zh": "尖沙咀"}, "exit": "R", "lat": 22.29729192667775, "lng": 114.17200466491856, "barrierFree": true}, {"name_en": "Ocean Park", "name_zh": "海洋公園", "name": {"en": "Ocean Park", "zh": "海洋公園"}, "exit": "A", "lat": 22.24833651683686, "lng": 114.17389360827599, "barrierFree": true}, {"name_en": "Ocean Park", "name_zh": "海洋公園", "name": {"en": "Ocean Park", "zh": "海洋公園"}, "exit": "B", "lat": 22.248118740523736, "lng": 114.17450897834091, "barrierFree": true}, {"name_en": "Ocean Park", "name_zh": "海洋公園", "name": {"en": "Ocean Park", "zh": "海洋公園"}, "exit": "C", "lat": 22.2490008343243, "lng": 114.174871271216, "barrierFree": false}, {"name_en": "Wong Chuk Hang", "name_zh": "黃竹坑", "name": {"en": "Wong Chuk Hang", "zh": "黃竹坑"}, "exit": "A1", "lat": 22.24814174599969, "lng": 114.16770586788988, "barrierFree": false}, {"name_en": "Wong Chuk Hang", "name_zh": "黃竹坑", "name": {"en": "Wong Chuk Hang", "zh": "黃竹坑"}, "exit": "A2", "lat": 22.24819310832767, "lng": 114.16795414890132, "barrierFree": false}, {"name_en": "Wong Chuk Hang", "name_zh": "黃竹坑", "name": {"en": "Wong Chuk Hang", "zh": "黃竹坑"}, "exit": "B", "lat": 22.24774390564961, "lng": 114.1668496418851, "barrierFree": true}, {"name_en": "Wong Chuk Hang", "name_zh": "黃竹坑", "name": {"en": "Wong Chuk Hang", "zh": "黃竹坑"}, "exit": "C", "lat": 22.247923736276977, "lng": 114.16802602144118, "barrierFree": false}, {"name_en": "Lei Tung", "name_zh": "利東", "name": {"en": "Lei Tung", "zh": "利東"}, "exit": "A1", "lat": 22.243640308512063, "lng": 114.15534710009987, "barrierFree": false}, {"name_en": "Lei Tung", "name_zh": "利東", "name": {"en": "Lei Tung", "zh": "利東"}, "exit": "A2", "lat": 22.243560539705115, "lng": 114.15540927457229, "barrierFree": false}, {"name_en": "Lei Tung", "name_zh": "利東", "name": {"en": "Lei Tung", "zh": "利東"}, "exit": "B", "lat": 22.24098218731687, "lng": 114.15615272917816, "barrierFree": true}, {"name_en": "South Horizons", "name_zh": "海怡半島", "name": {"en": "South Horizons", "zh": "海怡半島"}, "exit": "A", "lat": 22.243467010506272, "lng": 114.14892865277146, "barrierFree": false}, {"name_en": "South Horizons", "name_zh": "海怡半島", "name": {"en": "South Horizons", "zh": "海怡半島"}, "exit": "B", "lat": 22.24293706134395, "lng": 114.14820494452849, "barrierFree": false}, {"name_en": "South Horizons", "name_zh": "海怡半島", "name": {"en": "South Horizons", "zh": "海怡半島"}, "exit": "C", "lat": 22.242751609253194, "lng": 114.14901795936944, "barrierFree": true}]